{
  "type": "FeatureCollection",
  "features": [
    {
      "type": "Feature",
      "id": null,
      "properties": {},
      "geometry": {
        "type": "Polygon",
        "coordinates": [
          [
            [
              594256.870419,
              6643313.291636
            ],
            [
              594260.108786,
              6643316.857453
            ],
            [
              594269.15974,
              6643326.581337
            ],
            [
              594273.449527,
              6643331.717794
            ],
            [
              594281.133371,
              6643346.656225
            ],
            [
              594284.573588,
              6643356.171175
            ],
            [
              594292.297184,
              6643365.92494
            ],
            [
              594294.102405,
              6643375.431769
            ],
            [
              594294.478942,
              6643385.972816
            ],
            [
              594292.539141,
              6643394.286148
            ],
            [
              594289.442043,
              6643400.537628
            ],
            [
              594277.618909,
              6643403.316453
            ],
            [
              594259.302846,
              6643405.655621
            ],
            [
              594252.014576,
              6643404.250542
            ],
            [
              594245.964972,
              6643400.589653
            ],
            [
              594240.964931,
              6643396.863805
            ],
            [
              594240.723276,
              6643391.352604
            ],
            [
              594241.458784,
              6643383.260871
            ],
            [
              594243.318918,
              6643370.966276
            ],
            [
              594243.947672,
              6643364.048988
            ],
            [
              594243.757561,
              6643356.314666
            ],
            [
              594243.05256,
              6643344.529513
            ],
            [
              594241.431051,
              6643337.859268
            ],
            [
              594239.13086,
              6643325.628065
            ],
            [
              594238.728169,
              6643321.888487
            ],
            [
              594240.525918,
              6643313.592252
            ],
            [
              594245.16031,
              6643309.85894
            ],
            [
              594251.99525,
              6643309.737604
            ],
            [
              594256.870419,
              6643313.291636
            ]
          ]
        ]
      }
    },
    {
      "type": "Feature",
      "id": null,
      "properties": {},
      "geometry": {
        "type": "Polygon",
        "coordinates": [
          [
            [
              593965.966274,
              6643652.831392
            ],
            [
              593965.813365,
              6643653.188794
            ],
            [
              593965.738277,
              6643653.462852
            ],
            [
              593965.529264,
              6643654.106273
            ],
            [
              593965.291309,
              6643655.068087
            ],
            [
              593965.146547,
              6643655.777459
            ],
            [
              593965.099504,
              6643656.405397
            ],
            [
              593965.128466,
              6643657.190771
            ],
            [
              593965.353781,
              6643658.907191
            ],
            [
              593965.839683,
              6643660.737615
            ],
            [
              593967.503677,
              6643664.73223
            ],
            [
              593961.207149,
              6643668.424821
            ],
            [
              593955.758416,
              6643671.953731
            ],
            [
              593939.67347,
              6643656.592957
            ],
            [
              593932.273881,
              6643649.678385
            ],
            [
              593926.814283,
              6643652.333251
            ],
            [
              593889.609999,
              6643617.712047
            ],
            [
              593881.578844,
              6643610.679962
            ],
            [
              593875.952795,
              6643615.276449
            ],
            [
              593868.796546,
              6643603.256048
            ],
            [
              593863.111548,
              6643596.025886
            ],
            [
              593854.00546,
              6643586.909137
            ],
            [
              593835.690179,
              6643572.790713
            ],
            [
              593825.13641,
              6643564.696417
            ],
            [
              593815.957039,
              6643556.165085
            ],
            [
              593791.82914,
              6643529.927741
            ],
            [
              593780.613927,
              6643519.17423
            ],
            [
              593768.909232,
              6643510.052094
            ],
            [
              593762.914855,
              6643507.660757
            ],
            [
              593784.024743,
              6643491.696894
            ],
            [
              593806.088033,
              6643454.75615
            ],
            [
              593822.735347,
              6643434.452967
            ],
            [
              593852.513036,
              6643398.203279
            ],
            [
              593895.364211,
              6643355.35464
            ],
            [
              593882.718526,
              6643348.746083
            ],
            [
              593866.027415,
              6643339.943419
            ],
            [
              593846.166686,
              6643325.162733
            ],
            [
              593821.992722,
              6643309.036659
            ],
            [
              593782.267657,
              6643279.625509
            ],
            [
              593761.689325,
              6643257.50415
            ],
            [
              593738.912388,
              6643241.023397
            ],
            [
              593710.122967,
              6643221.356907
            ],
            [
              593673.881348,
              6643186.411966
            ],
            [
              593641.570156,
              6643147.639658
            ],
            [
              593615.5078,
              6643125.792583
            ],
            [
              593600.827301,
              6643124.458207
            ],
            [
              593550.890875,
              6643111.449638
            ],
            [
              593517.483506,
              6643102.070914
            ],
            [
              593485.480373,
              6643090.602073
            ],
            [
              593469.180425,
              6643098.473213
            ],
            [
              593448.601852,
              6643119.19164
            ],
            [
              593438.279326,
              6643147.084308
            ],
            [
              593436.732264,
              6643157.922083
            ],
            [
              593433.987356,
              6643177.08046
            ],
            [
              593428.16602,
              6643189.78762
            ],
            [
              593405.262514,
              6643176.024857
            ],
            [
              593394.58657,
              6643165.631616
            ],
            [
              593378.774893,
              6643150.24564
            ],
            [
              593390.653796,
              6643131.06452
            ],
            [
              593393.725567,
              6643127.630643
            ],
            [
              593415.797003,
              6643102.963639
            ],
            [
              593426.095264,
              6643087.592665
            ],
            [
              593437.429502,
              6643070.650027
            ],
            [
              593417.976069,
              6643061.877331
            ],
            [
              593384.638174,
              6643036.609257
            ],
            [
              593355.88225,
              6643015.029308
            ],
            [
              593319.128688,
              6642987.704793
            ],
            [
              593299.04634,
              6642973.154955
            ],
            [
              593266.065003,
              6642951.471855
            ],
            [
              593224.310844,
              6642938.313862
            ],
            [
              593197.818841,
              6642921.746535
            ],
            [
              593191.619021,
              6642914.88099
            ],
            [
              593182.277572,
              6642898.527733
            ],
            [
              593176.541602,
              6642872.42698
            ],
            [
              593176.183082,
              6642859.1481
            ],
            [
              593181.248861,
              6642846.362248
            ],
            [
              593187.07015,
              6642833.655099
            ],
            [
              593196.068193,
              6642820.443922
            ],
            [
              593187.4979,
              6642820.447685
            ],
            [
              593171.062118,
              6642817.558827
            ],
            [
              593159.890477,
              6642815.600217
            ],
            [
              593136.074211,
              6642811.879971
            ],
            [
              593124.798658,
              6642818.02025
            ],
            [
              593112.720562,
              6642824.599271
            ],
            [
              593104.884004,
              6642820.725944
            ],
            [
              593099.200697,
              6642806.190392
            ],
            [
              593100.886933,
              6642787.638299
            ],
            [
              593083.601031,
              6642754.908284
            ],
            [
              593070.540031,
              6642744.368473
            ],
            [
              593044.970304,
              6642742.827135
            ],
            [
              593026.611026,
              6642745.864873
            ],
            [
              593018.762975,
              6642756.802151
            ],
            [
              593007.670439,
              6642776.054709
            ],
            [
              593002.544961,
              6642789.607917
            ],
            [
              592991.49596,
              6642815.337037
            ],
            [
              592984.953812,
              6642843.04116
            ],
            [
              592983.168819,
              6642854.509646
            ],
            [
              592979.525389,
              6642866.993249
            ],
            [
              592974.236242,
              6642886.763244
            ],
            [
              592970.927692,
              6642905.940561
            ],
            [
              592966.015798,
              6642922.995238
            ],
            [
              592910.2241,
              6642932.123754
            ],
            [
              592836.896469,
              6642939.869094
            ],
            [
              592774.250236,
              6642959.493274
            ],
            [
              592742.783341,
              6642975.02746
            ],
            [
              592718.275026,
              6642974.395381
            ],
            [
              592687.661782,
              6642957.242666
            ],
            [
              592675.266527,
              6642930.767531
            ],
            [
              592663.044885,
              6642897.745273
            ],
            [
              592650.74638,
              6642867.997491
            ],
            [
              592643.937824,
              6642815.497454
            ],
            [
              592656.644001,
              6642766.7883
            ],
            [
              592678.990006,
              6642724.855913
            ],
            [
              592676.579049,
              6642692.093183
            ],
            [
              592658.709864,
              6642624.599223
            ],
            [
              592649.144809,
              6642552.410934
            ],
            [
              592617.617156,
              6642507.448469
            ],
            [
              592602.466322,
              6642461.275089
            ],
            [
              592637.369397,
              6642439.289613
            ],
            [
              592622.735684,
              6642373.514673
            ],
            [
              592613.170486,
              6642301.326434
            ],
            [
              592626.308599,
              6642236.269346
            ],
            [
              592681.196523,
              6642200.094319
            ],
            [
              592733.969879,
              6642119.723386
            ],
            [
              592786.728346,
              6642103.113806
            ],
            [
              592846.200804,
              6642142.256828
            ],
            [
              592877.172661,
              6642208.463087
            ],
            [
              592981.595898,
              6642259.599269
            ],
            [
              592982.862482,
              6642252.729893
            ],
            [
              592983.585265,
              6642245.991924
            ],
            [
              592984.825631,
              6642240.18388
            ],
            [
              592986.026213,
              6642236.469745
            ],
            [
              592986.673952,
              6642231.440747
            ],
            [
              592984.728214,
              6642212.659028
            ],
            [
              592987.310403,
              6642207.434651
            ],
            [
              592987.438777,
              6642202.489006
            ],
            [
              592989.289943,
              6642199.897615
            ],
            [
              592992.080108,
              6642188.851742
            ],
            [
              592994.046203,
              6642187.093671
            ],
            [
              592993.162957,
              6642179.808232
            ],
            [
              592994.144601,
              6642176.846796
            ],
            [
              592994.06312,
              6642174.65175
            ],
            [
              592991.585533,
              6642163.267498
            ],
            [
              592999.023594,
              6642149.332492
            ],
            [
              593000.123638,
              6642140.651805
            ],
            [
              593002.60361,
              6642137.104124
            ],
            [
              593001.874236,
              6642132.431747
            ],
            [
              593003.408737,
              6642130.564203
            ],
            [
              593003.294708,
              6642129.50016
            ],
            [
              593005.666892,
              6642119.961593
            ],
            [
              593004.350226,
              6642112.365917
            ],
            [
              593006.542506,
              6642109.996193
            ],
            [
              593014.183655,
              6642074.72506
            ],
            [
              593014.500117,
              6642065.170352
            ],
            [
              593015.502437,
              6642056.460713
            ],
            [
              593017.732458,
              6642042.855166
            ],
            [
              593015.85128,
              6642038.710315
            ],
            [
              593012.07162,
              6642025.531974
            ],
            [
              593011.155643,
              6642011.871307
            ],
            [
              593012.839182,
              6641998.868271
            ],
            [
              593014.264139,
              6641994.78316
            ],
            [
              593014.192553,
              6641990.270918
            ],
            [
              593015.94575,
              6641976.83267
            ],
            [
              593014.062582,
              6641965.532753
            ],
            [
              593014.53935,
              6641962.936867
            ],
            [
              593013.699265,
              6641944.90782
            ],
            [
              593016.398054,
              6641935.198334
            ],
            [
              593021.253231,
              6641898.339332
            ],
            [
              593027.318757,
              6641887.581098
            ],
            [
              593030.180919,
              6641861.940771
            ],
            [
              593027.186824,
              6641857.564322
            ],
            [
              593020.615771,
              6641841.533118
            ],
            [
              593018.091958,
              6641828.890494
            ],
            [
              593015.498563,
              6641819.111369
            ],
            [
              593012.742301,
              6641809.578453
            ],
            [
              593006.971498,
              6641774.694095
            ],
            [
              593005.832854,
              6641758.403987
            ],
            [
              593006.57833,
              6641755.611852
            ],
            [
              593006.783615,
              6641751.144745
            ],
            [
              593007.480944,
              6641740.490695
            ],
            [
              593007.148777,
              6641736.747641
            ],
            [
              593010.868863,
              6641719.002589
            ],
            [
              593010.670634,
              6641715.994131
            ],
            [
              593013.350337,
              6641703.734008
            ],
            [
              593015.061625,
              6641680.818973
            ],
            [
              593047.030313,
              6641656.007584
            ],
            [
              593047.610289,
              6641655.919803
            ],
            [
              593046.963898,
              6641642.163222
            ],
            [
              593071.063437,
              6641613.616001
            ],
            [
              593074.359583,
              6641612.23981
            ],
            [
              593080.806118,
              6641605.680732
            ],
            [
              593098.099248,
              6641592.952425
            ],
            [
              593127.903342,
              6641590.191979
            ],
            [
              593143.323134,
              6641596.089064
            ],
            [
              593153.808863,
              6641595.326034
            ],
            [
              593156.67426,
              6641590.849802
            ],
            [
              593165.155674,
              6641583.763263
            ],
            [
              593178.873899,
              6641569.515878
            ],
            [
              593185.309645,
              6641565.39433
            ],
            [
              593190.093261,
              6641562.336774
            ],
            [
              593199.21448,
              6641559.252154
            ],
            [
              593188.328397,
              6641543.992861
            ],
            [
              593176.694748,
              6641522.163117
            ],
            [
              593171.327103,
              6641509.121447
            ],
            [
              593169.390567,
              6641499.733274
            ],
            [
              593162.813438,
              6641430.214704
            ],
            [
              593193.829163,
              6641431.016488
            ],
            [
              593198.93761,
              6641428.359744
            ],
            [
              593204.154945,
              6641405.402148
            ],
            [
              593230.025439,
              6641387.181405
            ],
            [
              593238.508723,
              6641381.840918
            ],
            [
              593254.21872,
              6641378.692659
            ],
            [
              593256.842637,
              6641378.640205
            ],
            [
              593259.706102,
              6641370.099591
            ],
            [
              593266.350623,
              6641358.270108
            ],
            [
              593275.232806,
              6641349.092437
            ],
            [
              593289.434283,
              6641338.47145
            ],
            [
              593291.828377,
              6641337.9665
            ],
            [
              593293.118618,
              6641337.682354
            ],
            [
              593303.40877,
              6641331.783645
            ],
            [
              593314.857999,
              6641326.381538
            ],
            [
              593304.617021,
              6641312.084139
            ],
            [
              593297.864915,
              6641296.498301
            ],
            [
              593297.772363,
              6641287.578757
            ],
            [
              593296.982038,
              6641272.976166
            ],
            [
              593299.483284,
              6641254.949703
            ],
            [
              593308.509093,
              6641238.007904
            ],
            [
              593327.051578,
              6641219.703183
            ],
            [
              593349.255347,
              6641216.322171
            ],
            [
              593353.844488,
              6641215.625334
            ],
            [
              593376.923195,
              6641211.892326
            ],
            [
              593391.444683,
              6641221.711721
            ],
            [
              593400.144502,
              6641226.135045
            ],
            [
              593417.557153,
              6641246.43289
            ],
            [
              593415.110721,
              6641251.709779
            ],
            [
              593427.274173,
              6641257.551734
            ],
            [
              593435.273534,
              6641257.204956
            ],
            [
              593439.552344,
              6641256.941531
            ],
            [
              593470.712801,
              6641253.611728
            ],
            [
              593495.170506,
              6641251.930876
            ],
            [
              593507.298611,
              6641255.180472
            ],
            [
              593510.548688,
              6641255.857168
            ],
            [
              593513.099349,
              6641256.72128
            ],
            [
              593515.790257,
              6641257.36723
            ],
            [
              593517.641512,
              6641258.197786
            ],
            [
              593520.764923,
              6641259.053637
            ],
            [
              593524.406788,
              6641259.946571
            ],
            [
              593528.98965,
              6641260.864811
            ],
            [
              593532.218034,
              6641262.221922
            ],
            [
              593537.481363,
              6641264.928036
            ],
            [
              593547.274291,
              6641272.230324
            ],
            [
              593556.940572,
              6641280.705343
            ],
            [
              593562.312529,
              6641285.418412
            ],
            [
              593567.46372,
              6641290.021002
            ],
            [
              593571.249534,
              6641293.746877
            ],
            [
              593574.546739,
              6641296.996839
            ],
            [
              593581.796247,
              6641304.128298
            ],
            [
              593584.939657,
              6641308.076775
            ],
            [
              593588.191646,
              6641312.15554
            ],
            [
              593594.911148,
              6641326.444025
            ],
            [
              593595.210839,
              6641332.973896
            ],
            [
              593594.854458,
              6641337.116204
            ],
            [
              593585.824826,
              6641442.657459
            ],
            [
              593579.568086,
              6641506.644548
            ],
            [
              593577.674745,
              6641521.625459
            ],
            [
              593572.498399,
              6641556.057055
            ],
            [
              593572.218115,
              6641563.557897
            ],
            [
              593572.78424,
              6641586.368923
            ],
            [
              593571.365066,
              6641603.199141
            ],
            [
              593571.053846,
              6641604.746466
            ],
            [
              593570.151874,
              6641609.150177
            ],
            [
              593563.590002,
              6641634.424274
            ],
            [
              593558.380721,
              6641656.078107
            ],
            [
              593545.50618,
              6641722.544616
            ],
            [
              593534.460166,
              6641751.445277
            ],
            [
              593515.740742,
              6641790.024825
            ],
            [
              593508.250559,
              6641817.452362
            ],
            [
              593500.251962,
              6641848.596846
            ],
            [
              593495.154719,
              6641902.363181
            ],
            [
              593536.473692,
              6641908.717517
            ],
            [
              593553.865919,
              6641911.351884
            ],
            [
              593684.778224,
              6641931.618945
            ],
            [
              593731.375915,
              6641938.854549
            ],
            [
              593742.849304,
              6641994.688977
            ],
            [
              593752.629492,
              6642038.45786
            ],
            [
              593762.978798,
              6642082.589566
            ],
            [
              593764.188644,
              6642087.717077
            ],
            [
              593765.400298,
              6642092.824684
            ],
            [
              593771.71735,
              6642118.717395
            ],
            [
              593774.433826,
              6642129.461009
            ],
            [
              593775.491637,
              6642133.500948
            ],
            [
              593777.343904,
              6642139.068182
            ],
            [
              593779.653149,
              6642146.89471
            ],
            [
              593780.847594,
              6642151.308331
            ],
            [
              593781.436676,
              6642153.659911
            ],
            [
              593781.928037,
              6642155.872153
            ],
            [
              593782.084619,
              6642158.124213
            ],
            [
              593781.927243,
              6642160.40785
            ],
            [
              593781.046909,
              6642162.696226
            ],
            [
              593781.079493,
              6642162.779368
            ],
            [
              593781.241444,
              6642162.764082
            ],
            [
              593779.687037,
              6642165.071375
            ],
            [
              593778.443844,
              6642165.169023
            ],
            [
              593602.344424,
              6642179.339622
            ],
            [
              593560.380677,
              6642148.611461
            ],
            [
              593537.648242,
              6642143.785743
            ],
            [
              593516.415227,
              6642146.201246
            ],
            [
              593499.963474,
              6642160.160041
            ],
            [
              593494.61813,
              6642170.612367
            ],
            [
              593472.275319,
              6642231.832953
            ],
            [
              593451.891868,
              6642315.549533
            ],
            [
              593447.951896,
              6642337.037819
            ],
            [
              593428.791274,
              6642357.283219
            ],
            [
              593403.73436,
              6642393.048841
            ],
            [
              593389.706086,
              6642427.819747
            ],
            [
              593389.131968,
              6642449.814742
            ],
            [
              593396.930079,
              6642475.420546
            ],
            [
              593408.539822,
              6642485.035573
            ],
            [
              593438.074513,
              6642488.773742
            ],
            [
              593478.078814,
              6642497.005674
            ],
            [
              593553.872251,
              6642529.042439
            ],
            [
              593586.200555,
              6642555.703819
            ],
            [
              593626.806177,
              6642589.780746
            ],
            [
              593651.566655,
              6642614.138563
            ],
            [
              593663.580438,
              6642650.112531
            ],
            [
              593677.401194,
              6642690.716368
            ],
            [
              593691.744557,
              6642711.217213
            ],
            [
              593705.362163,
              6642725.570721
            ],
            [
              593726.974549,
              6642735.763988
            ],
            [
              593780.605604,
              6642759.906002
            ],
            [
              593832.251682,
              6642792.748701
            ],
            [
              593893.450797,
              6642828.466644
            ],
            [
              593902.141513,
              6642830.450739
            ],
            [
              593908.404499,
              6642825.36028
            ],
            [
              593909.014837,
              6642801.752919
            ],
            [
              593896.794496,
              6642699.92965
            ],
            [
              593907.345715,
              6642664.330687
            ],
            [
              593933.267171,
              6642643.124215
            ],
            [
              593955.026358,
              6642613.942831
            ],
            [
              593970.785669,
              6642580.222127
            ],
            [
              593989.390434,
              6642537.828669
            ],
            [
              593987.754454,
              6642533.415045
            ],
            [
              593972.955336,
              6642530.404232
            ],
            [
              593965.357458,
              6642519.70854
            ],
            [
              593946.080089,
              6642453.571151
            ],
            [
              593943.46722,
              6642419.384734
            ],
            [
              593937.535338,
              6642378.103081
            ],
            [
              593930.403049,
              6642349.918456
            ],
            [
              593927.374266,
              6642331.45953
            ],
            [
              593915.518242,
              6642316.272579
            ],
            [
              593890.731451,
              6642293.748823
            ],
            [
              593863.156176,
              6642277.283728
            ],
            [
              593841.756191,
              6642259.232278
            ],
            [
              593830.683808,
              6642247.568648
            ],
            [
              593828.768629,
              6642220.390187
            ],
            [
              593823.301217,
              6642194.865695
            ],
            [
              593821.936434,
              6642179.959931
            ],
            [
              593823.175706,
              6642165.993298
            ],
            [
              593818.946525,
              6642160.631407
            ],
            [
              593818.324014,
              6642160.855912
            ],
            [
              593817.278874,
              6642157.007791
            ],
            [
              593817.817223,
              6642156.494753
            ],
            [
              593819.704521,
              6642150.745565
            ],
            [
              593823.942369,
              6642138.897923
            ],
            [
              593829.254151,
              6642123.95672
            ],
            [
              593833.956149,
              6642111.529084
            ],
            [
              593839.685978,
              6642097.840122
            ],
            [
              593845.138888,
              6642082.118968
            ],
            [
              593857.368398,
              6642049.141166
            ],
            [
              593858.61156,
              6642047.277234
            ],
            [
              593860.442855,
              6642045.787878
            ],
            [
              593863.874731,
              6642042.918553
            ],
            [
              593866.44705,
              6642041.225697
            ],
            [
              593869.806559,
              6642039.483863
            ],
            [
              593873.382306,
              6642037.239856
            ],
            [
              593876.653163,
              6642035.921374
            ],
            [
              593879.017386,
              6642034.641115
            ],
            [
              593879.648029,
              6642034.327132
            ],
            [
              593882.019503,
              6642033.187923
            ],
            [
              593884.862382,
              6642032.051417
            ],
            [
              593890.815969,
              6642030.033555
            ],
            [
              593896.005906,
              6642028.357728
            ],
            [
              593900.057604,
              6642027.060138
            ],
            [
              593903.183704,
              6642026.230256
            ],
            [
              593908.239733,
              6642025.034079
            ],
            [
              593914.649361,
              6642023.740052
            ],
            [
              593919.552492,
              6642022.790792
            ],
            [
              593923.581596,
              6642022.18347
            ],
            [
              593926.904034,
              6642021.843283
            ],
            [
              593933.249456,
              6642022.028618
            ],
            [
              593939.934204,
              6642023.117848
            ],
            [
              593945.58295,
              6642024.343728
            ],
            [
              593949.918823,
              6642025.329767
            ],
            [
              593959.698041,
              6642027.482978
            ],
            [
              593967.25322,
              6642029.153174
            ],
            [
              593980.889659,
              6642032.259057
            ],
            [
              593986.013631,
              6642033.627811
            ],
            [
              593987.994265,
              6642034.359854
            ],
            [
              593991.968213,
              6642035.242753
            ],
            [
              593995.33049,
              6642036.01005
            ],
            [
              593998.281084,
              6642036.559199
            ],
            [
              594001.918423,
              6642036.94999
            ],
            [
              594005.496052,
              6642037.224868
            ],
            [
              594010.857038,
              6642037.421184
            ],
            [
              594012.999626,
              6642037.475421
            ],
            [
              594017.059513,
              6642037.52318
            ],
            [
              594019.338713,
              6642037.399267
            ],
            [
              594021.698451,
              6642037.272538
            ],
            [
              594025.645221,
              6642037.019098
            ],
            [
              594029.048198,
              6642036.676095
            ],
            [
              594032.369741,
              6642036.235374
            ],
            [
              594035.393595,
              6642035.53679
            ],
            [
              594038.714225,
              6642034.774862
            ],
            [
              594042.252913,
              6642033.601142
            ],
            [
              594045.196226,
              6642032.6846
            ],
            [
              594048.82267,
              6642031.428639
            ],
            [
              594052.035617,
              6642030.195308
            ],
            [
              594055.23951,
              6642028.730346
            ],
            [
              594058.819795,
              6642026.878117
            ],
            [
              594062.296939,
              6642024.946168
            ],
            [
              594066.356751,
              6642022.565618
            ],
            [
              594070.341463,
              6642019.796808
            ],
            [
              594071.968292,
              6642018.680135
            ],
            [
              594073.54172,
              6642017.59895
            ],
            [
              594074.348796,
              6642016.999947
            ],
            [
              594077.56081,
              6642014.562315
            ],
            [
              594081.128415,
              6642012.187106
            ],
            [
              594083.673611,
              6642010.461474
            ],
            [
              594087.931557,
              6642006.894615
            ],
            [
              594092.075495,
              6642003.257182
            ],
            [
              594097.232793,
              6641998.848928
            ],
            [
              594103.725563,
              6641992.996465
            ],
            [
              594109.028545,
              6641988.64149
            ],
            [
              594113.306399,
              6641985.186825
            ],
            [
              594118.747815,
              6641980.744079
            ],
            [
              594124.444386,
              6641976.254277
            ],
            [
              594131.65377,
              6641970.577328
            ],
            [
              594136.200348,
              6641966.926311
            ],
            [
              594137.93212,
              6641965.538291
            ],
            [
              594141.468058,
              6641963.180271
            ],
            [
              594143.830477,
              6641961.588654
            ],
            [
              594145.421112,
              6641960.75981
            ],
            [
              594148.233213,
              6641958.857831
            ],
            [
              594152.783412,
              6641954.835742
            ],
            [
              594155.360247,
              6641952.651568
            ],
            [
              594156.587134,
              6641950.856296
            ],
            [
              594157.713575,
              6641948.951644
            ],
            [
              594164.205464,
              6641944.43387
            ],
            [
              594168.332249,
              6641942.310181
            ],
            [
              594172.586613,
              6641940.218156
            ],
            [
              594177.290683,
              6641938.367605
            ],
            [
              594181.917824,
              6641936.480157
            ],
            [
              594186.073577,
              6641934.921068
            ],
            [
              594190.422974,
              6641933.550074
            ],
            [
              594194.914409,
              6641932.272471
            ],
            [
              594199.219467,
              6641931.168497
            ],
            [
              594207.773505,
              6641929.356757
            ],
            [
              594211.304962,
              6641929.035562
            ],
            [
              594215.725851,
              6641928.534188
            ],
            [
              594226.831475,
              6641927.576525
            ],
            [
              594239.865236,
              6641926.714018
            ],
            [
              594248.334249,
              6641926.279499
            ],
            [
              594254.990027,
              6641926.031417
            ],
            [
              594257.11724,
              6641925.813205
            ],
            [
              594259.745689,
              6641925.159062
            ],
            [
              594262.574118,
              6641924.844118
            ],
            [
              594264.757439,
              6641925.002306
            ],
            [
              594268.58123,
              6641927.53749
            ],
            [
              594273.998415,
              6641931.31142
            ],
            [
              594279.022913,
              6641934.768577
            ],
            [
              594281.659584,
              6641936.563556
            ],
            [
              594290.451769,
              6641942.621146
            ],
            [
              594298.678455,
              6641948.275911
            ],
            [
              594309.093899,
              6641955.464475
            ],
            [
              594314.017059,
              6641958.932494
            ],
            [
              594319.750049,
              6641962.985807
            ],
            [
              594320.858445,
              6641963.488049
            ],
            [
              594322.750421,
              6641963.760252
            ],
            [
              594325.363529,
              6641964.379078
            ],
            [
              594327.565848,
              6641965.101163
            ],
            [
              594329.474126,
              6641966.408568
            ],
            [
              594330.970726,
              6641968.160245
            ],
            [
              594332.029406,
              6641969.872022
            ],
            [
              594332.715288,
              6641971.710681
            ],
            [
              594333.263658,
              6641973.958218
            ],
            [
              594334.343204,
              6641978.311237
            ],
            [
              594335.486099,
              6641983.181806
            ],
            [
              594336.921296,
              6641989.694501
            ],
            [
              594338.503057,
              6641995.919563
            ],
            [
              594339.231486,
              6641998.615076
            ],
            [
              594339.881209,
              6642001.072428
            ],
            [
              594347.5863,
              6642027.041224
            ],
            [
              594350.591399,
              6642036.707348
            ],
            [
              594353.959384,
              6642048.343139
            ],
            [
              594356.779007,
              6642057.731293
            ],
            [
              594359.905363,
              6642067.940303
            ],
            [
              594365.767199,
              6642087.46951
            ],
            [
              594371.98282,
              6642108.074731
            ],
            [
              594375.320025,
              6642119.276218
            ],
            [
              594383.037746,
              6642144.553754
            ],
            [
              594386.023858,
              6642154.759958
            ],
            [
              594390.002613,
              6642167.846155
            ],
            [
              594393.794069,
              6642180.453612
            ],
            [
              594397.701334,
              6642193.553484
            ],
            [
              594400.589707,
              6642203.068417
            ],
            [
              594402.427518,
              6642209.236476
            ],
            [
              594403.868093,
              6642213.923268
            ],
            [
              594405.161161,
              6642218.466397
            ],
            [
              594405.98644,
              6642222.525363
            ],
            [
              594406.522184,
              6642226.788824
            ],
            [
              594406.876066,
              6642231.286634
            ],
            [
              594406.68798,
              6642236.006036
            ],
            [
              594406.170518,
              6642240.484965
            ],
            [
              594405.324613,
              6642244.713168
            ],
            [
              594404.092364,
              6642248.996474
            ],
            [
              594402.55608,
              6642252.870912
            ],
            [
              594400.941972,
              6642256.718306
            ],
            [
              594398.888138,
              6642260.32483
            ],
            [
              594396.919335,
              6642263.768686
            ],
            [
              594394.657378,
              6642267.0152
            ],
            [
              594392.055223,
              6642270.361151
            ],
            [
              594387.164846,
              6642276.248866
            ],
            [
              594384.483034,
              6642278.925457
            ],
            [
              594381.687226,
              6642281.641762
            ],
            [
              594373.043769,
              6642291.061943
            ],
            [
              594377.178904,
              6642297.79003
            ],
            [
              594372.865834,
              6642305.054755
            ],
            [
              594376.410998,
              6642310.655561
            ],
            [
              594371.531441,
              6642314.878421
            ],
            [
              594411.253976,
              6642333.611688
            ],
            [
              594451.370183,
              6642355.521753
            ],
            [
              594424.965338,
              6642411.747322
            ],
            [
              594435.653185,
              6642421.790512
            ],
            [
              594446.142866,
              6642431.253722
            ],
            [
              594472.574595,
              6642448.156777
            ],
            [
              594484.099345,
              6642456.168752
            ],
            [
              594497.289845,
              6642463.298403
            ],
            [
              594510.387165,
              6642471.122048
            ],
            [
              594516.008857,
              6642475.626995
            ],
            [
              594527.718829,
              6642470.118257
            ],
            [
              594544.995519,
              6642479.325179
            ],
            [
              594562.304748,
              6642487.622061
            ],
            [
              594588.66308,
              6642498.7082
            ],
            [
              594594.787962,
              6642508.718024
            ],
            [
              594603.90416,
              6642518.939515
            ],
            [
              594604.447046,
              6642518.818259
            ],
            [
              594596.678415,
              6642523.581352
            ],
            [
              594590.220761,
              6642523.4159
            ],
            [
              594581.024217,
              6642522.248875
            ],
            [
              594561.898085,
              6642512.52252
            ],
            [
              594544.64672,
              6642501.932838
            ],
            [
              594500.102986,
              6642511.843342
            ],
            [
              594502.65382,
              6642520.21371
            ],
            [
              594502.454909,
              6642527.591555
            ],
            [
              594497.830217,
              6642563.458413
            ],
            [
              594496.626128,
              6642574.498053
            ],
            [
              594518.633985,
              6642579.679484
            ],
            [
              594532.389008,
              6642582.806248
            ],
            [
              594542.318589,
              6642591.365583
            ],
            [
              594567.467471,
              6642617.856209
            ],
            [
              594589.016029,
              6642640.567509
            ],
            [
              594591.638285,
              6642646.164633
            ],
            [
              594592.20496,
              6642660.024551
            ],
            [
              594593.740655,
              6642672.055823
            ],
            [
              594600.802046,
              6642684.238096
            ],
            [
              594605.242088,
              6642690.813291
            ],
            [
              594614.250569,
              6642699.349133
            ],
            [
              594624.321198,
              6642702.38188
            ],
            [
              594643.542264,
              6642708.413915
            ],
            [
              594660.863257,
              6642716.250186
            ],
            [
              594672.493089,
              6642730.393116
            ],
            [
              594680.428564,
              6642744.44111
            ],
            [
              594728.503651,
              6642822.980824
            ],
            [
              594726.17732,
              6642819.42756
            ],
            [
              594725.572022,
              6642821.229156
            ],
            [
              594719.385023,
              6642827.580961
            ],
            [
              594719.366933,
              6642828.442444
            ],
            [
              594717.287735,
              6642831.665329
            ],
            [
              594716.572052,
              6642833.577314
            ],
            [
              594713.650517,
              6642839.884825
            ],
            [
              594710.031373,
              6642845.807702
            ],
            [
              594705.731782,
              6642851.267525
            ],
            [
              594700.838642,
              6642856.191509
            ],
            [
              594695.408014,
              6642860.514904
            ],
            [
              594689.505071,
              6642864.183122
            ],
            [
              594683.225722,
              6642867.134635
            ],
            [
              594677.322741,
              6642869.147142
            ],
            [
              594684.69844,
              6642901.388152
            ],
            [
              594681.339993,
              6642915.041952
            ],
            [
              594693.720025,
              6642936.388017
            ],
            [
              594700.071138,
              6642949.760159
            ],
            [
              594704.312094,
              6642955.875827
            ],
            [
              594709.787832,
              6642999.08333
            ],
            [
              594701.157855,
              6643007.802259
            ],
            [
              594700.31599,
              6643040.139426
            ],
            [
              594682.442283,
              6643039.046594
            ],
            [
              594682.689635,
              6643061.056292
            ],
            [
              594667.9702,
              6643066.110813
            ],
            [
              594665.350937,
              6643077.262686
            ],
            [
              594658.462735,
              6643086.691858
            ],
            [
              594653.73427,
              6643092.67456
            ],
            [
              594648.576011,
              6643098.196719
            ],
            [
              594641.386465,
              6643104.427277
            ],
            [
              594637.597138,
              6643106.591649
            ],
            [
              594635.349611,
              6643109.127071
            ],
            [
              594629.3798,
              6643118.388736
            ],
            [
              594634.66399,
              6643124.177753
            ],
            [
              594639.700674,
              6643156.868599
            ],
            [
              594634.926184,
              6643170.64436
            ],
            [
              594632.836268,
              6643185.135987
            ],
            [
              594629.018087,
              6643194.242088
            ],
            [
              594619.732262,
              6643213.488515
            ],
            [
              594604.308117,
              6643228.283343
            ],
            [
              594602.633341,
              6643230.700124
            ],
            [
              594600.156888,
              6643232.22115
            ],
            [
              594596.627279,
              6643237.048381
            ],
            [
              594586.815549,
              6643241.766217
            ],
            [
              594585.434828,
              6643243.487191
            ],
            [
              594581.041167,
              6643251.527425
            ],
            [
              594576.073899,
              6643262.786993
            ],
            [
              594558.49171,
              6643273.060487
            ],
            [
              594537.078375,
              6643270.501873
            ],
            [
              594482.753297,
              6643263.045259
            ],
            [
              594472.507961,
              6643252.771255
            ],
            [
              594463.600008,
              6643246.883664
            ],
            [
              594447.199251,
              6643238.528956
            ],
            [
              594439.298416,
              6643237.569966
            ],
            [
              594426.700798,
              6643242.907532
            ],
            [
              594419.175528,
              6643247.311458
            ],
            [
              594415.327439,
              6643252.220018
            ],
            [
              594410.156521,
              6643258.212661
            ],
            [
              594404.56307,
              6643265.872977
            ],
            [
              594394.32634,
              6643288.073487
            ],
            [
              594384.854048,
              6643302.305503
            ],
            [
              594372.466435,
              6643314.054554
            ],
            [
              594368.719686,
              6643320.497869
            ],
            [
              594368.936945,
              6643328.264771
            ],
            [
              594365.227404,
              6643342.468556
            ],
            [
              594368.925571,
              6643357.757114
            ],
            [
              594376.128019,
              6643368.938685
            ],
            [
              594370.811473,
              6643378.189452
            ],
            [
              594372.522689,
              6643395.796264
            ],
            [
              594378.513555,
              6643403.41551
            ],
            [
              594377.048742,
              6643410.256911
            ],
            [
              594355.027857,
              6643444.412025
            ],
            [
              594347.36581,
              6643435.526769
            ],
            [
              594339.83401,
              6643424.43578
            ],
            [
              594336.869794,
              6643420.172345
            ],
            [
              594334.726251,
              6643416.706038
            ],
            [
              594332.847816,
              6643412.972809
            ],
            [
              594321.043325,
              6643387.835483
            ],
            [
              594320.191656,
              6643368.39009
            ],
            [
              594321.155679,
              6643330.514767
            ],
            [
              594317.106205,
              6643296.789684
            ],
            [
              594315.500395,
              6643248.324485
            ],
            [
              594310.66094,
              6643211.145853
            ],
            [
              594306.952869,
              6643199.719848
            ],
            [
              594290.735656,
              6643180.844914
            ],
            [
              594252.216362,
              6643141.036505
            ],
            [
              594217.586902,
              6643104.692583
            ],
            [
              594188.758304,
              6643076.291923
            ],
            [
              594164.923535,
              6643059.63473
            ],
            [
              594138.865645,
              6643042.594844
            ],
            [
              594081.314794,
              6643015.42702
            ],
            [
              594080.260773,
              6643024.164855
            ],
            [
              594086.018735,
              6643034.429332
            ],
            [
              594088.556199,
              6643042.442829
            ],
            [
              594091.500932,
              6643047.290528
            ],
            [
              594093.87091,
              6643049.696516
            ],
            [
              594095.961742,
              6643051.955305
            ],
            [
              594097.621464,
              6643054.441542
            ],
            [
              594098.581197,
              6643056.297772
            ],
            [
              594100.514392,
              6643058.398529
            ],
            [
              594102.62345,
              6643061.97378
            ],
            [
              594102.769496,
              6643067.355659
            ],
            [
              594102.088647,
              6643071.020728
            ],
            [
              594098.844811,
              6643073.845711
            ],
            [
              594094.236441,
              6643074.887154
            ],
            [
              594089.897352,
              6643072.966011
            ],
            [
              594087.030477,
              6643067.992623
            ],
            [
              594084.438952,
              6643063.528359
            ],
            [
              594077.046631,
              6643062.384893
            ],
            [
              594039.892304,
              6643053.378086
            ],
            [
              594043.796841,
              6643072.02705
            ],
            [
              594049.259545,
              6643096.497537
            ],
            [
              594053.52797,
              6643125.937256
            ],
            [
              594054.506554,
              6643158.339273
            ],
            [
              594054.954186,
              6643204.752472
            ],
            [
              594058.186854,
              6643248.854941
            ],
            [
              594061.045593,
              6643273.488956
            ],
            [
              594065.900917,
              6643295.436911
            ],
            [
              594072.068064,
              6643315.220609
            ],
            [
              594077.478665,
              6643326.970242
            ],
            [
              594086.939839,
              6643343.229965
            ],
            [
              594098.057663,
              6643356.454214
            ],
            [
              594107.671993,
              6643366.355642
            ],
            [
              594116.19858,
              6643373.541533
            ],
            [
              594131.532192,
              6643385.954101
            ],
            [
              594141.419481,
              6643394.021734
            ],
            [
              594151.677773,
              6643402.38852
            ],
            [
              594163.408372,
              6643412.084022
            ],
            [
              594184.29679,
              6643428.834944
            ],
            [
              594196.973051,
              6643436.89046
            ],
            [
              594206.169644,
              6643441.906346
            ],
            [
              594215.838377,
              6643446.170564
            ],
            [
              594223.170046,
              6643448.761934
            ],
            [
              594230.645262,
              6643451.233587
            ],
            [
              594240.541426,
              6643454.456357
            ],
            [
              594248.138538,
              6643456.876471
            ],
            [
              594241.496364,
              6643457.424053
            ],
            [
              594232.959221,
              6643458.35614
            ],
            [
              594222.276508,
              6643459.839716
            ],
            [
              594209.269536,
              6643461.993613
            ],
            [
              594201.118796,
              6643463.77086
            ],
            [
              594190.968861,
              6643466.37823
            ],
            [
              594181.818211,
              6643469.24412
            ],
            [
              594168.284496,
              6643474.216578
            ],
            [
              594157.233855,
              6643479.428889
            ],
            [
              594147.832104,
              6643483.758962
            ],
            [
              594140.440764,
              6643488.397415
            ],
            [
              594133.408495,
              6643492.736543
            ],
            [
              594126.376217,
              6643497.07577
            ],
            [
              594109.569389,
              6643511.093936
            ],
            [
              594102.119457,
              6643518.275889
            ],
            [
              594056.307892,
              6643521.797559
            ],
            [
              594054.095854,
              6643522.180536
            ],
            [
              594051.258651,
              6643521.325651
            ],
            [
              594043.093161,
              6643518.206704
            ],
            [
              594043.058082,
              6643515.143698
            ],
            [
              594043.099066,
              6643506.246044
            ],
            [
              594042.979073,
              6643484.197548
            ],
            [
              594043.433458,
              6643444.146222
            ],
            [
              594043.188692,
              6643398.349446
            ],
            [
              594043.36064,
              6643359.068942
            ],
            [
              594043.762498,
              6643333.616194
            ],
            [
              594038.616906,
              6643329.154492
            ],
            [
              594033.745895,
              6643324.634056
            ],
            [
              594017.3136,
              6643318.467464
            ],
            [
              593998.429774,
              6643311.228263
            ],
            [
              593982.09376,
              6643304.157026
            ],
            [
              593963.324923,
              6643296.237963
            ],
            [
              593961.869421,
              6643297.645657
            ],
            [
              593958.422143,
              6643306.359826
            ],
            [
              593958.07746,
              6643310.735929
            ],
            [
              593958.000997,
              6643315.667573
            ],
            [
              593959.298551,
              6643320.086877
            ],
            [
              593966.016824,
              6643339.088843
            ],
            [
              593968.225319,
              6643345.462803
            ],
            [
              593964.616411,
              6643347.192474
            ],
            [
              593967.766584,
              6643355.505319
            ],
            [
              593970.682499,
              6643363.735759
            ],
            [
              593972.578641,
              6643369.165321
            ],
            [
              593974.776331,
              6643374.781551
            ],
            [
              593976.787344,
              6643380.699428
            ],
            [
              593979.732081,
              6643388.613873
            ],
            [
              593982.834771,
              6643396.542675
            ],
            [
              593986.935704,
              6643407.686958
            ],
            [
              593989.593021,
              6643414.380494
            ],
            [
              593991.015099,
              6643417.138362
            ],
            [
              593993.808989,
              6643423.207081
            ],
            [
              593997.500591,
              6643429.038784
            ],
            [
              594000.955115,
              6643434.848938
            ],
            [
              594003.325245,
              6643438.569149
            ],
            [
              594005.071131,
              6643441.735779
            ],
            [
              594008.680488,
              6643449.975969
            ],
            [
              594012.282284,
              6643457.746228
            ],
            [
              594014.887063,
              6643466.479452
            ],
            [
              594016.514962,
              6643471.937722
            ],
            [
              594018.889949,
              6643483.198987
            ],
            [
              594022.280074,
              6643499.650381
            ],
            [
              594024.082753,
              6643508.10859
            ],
            [
              594025.300723,
              6643513.330502
            ],
            [
              594026.674349,
              6643518.666012
            ],
            [
              594028.326272,
              6643526.051409
            ],
            [
              594032.46485,
              6643525.066829
            ],
            [
              594034.011917,
              6643526.30279
            ],
            [
              594035.687752,
              6643527.218393
            ],
            [
              594037.354541,
              6643527.502665
            ],
            [
              594039.048322,
              6643527.125666
            ],
            [
              594040.478726,
              6643526.359547
            ],
            [
              594041.2657,
              6643525.369061
            ],
            [
              594042.136489,
              6643523.821917
            ],
            [
              594043.046159,
              6643519.291245
            ],
            [
              594050.18277,
              6643530.049656
            ],
            [
              594047.910896,
              6643539.035346
            ],
            [
              594044.991552,
              6643581.529761
            ],
            [
              594044.711183,
              6643592.563012
            ],
            [
              594040.789789,
              6643597.173964
            ],
            [
              594036.175325,
              6643603.116804
            ],
            [
              594031.340091,
              6643609.390805
            ],
            [
              594027.818627,
              6643613.576393
            ],
            [
              594024.041991,
              6643618.030005
            ],
            [
              594021.723896,
              6643620.568925
            ],
            [
              594015.491639,
              6643627.087239
            ],
            [
              594010.222086,
              6643632.398526
            ],
            [
              594007.106858,
              6643635.316569
            ],
            [
              594006.778425,
              6643635.617774
            ],
            [
              594005.582269,
              6643636.743469
            ],
            [
              594004.605085,
              6643637.668195
            ],
            [
              594003.054266,
              6643639.05247
            ],
            [
              594001.878024,
              6643640.069488
            ],
            [
              593999.459483,
              6643642.278252
            ],
            [
              593997.409203,
              6643643.968458
            ],
            [
              593994.901094,
              6643646.058593
            ],
            [
              593993.309548,
              6643647.338915
            ],
            [
              593991.847389,
              6643648.520611
            ],
            [
              593989.474101,
              6643650.231531
            ],
            [
              593987.835495,
              6643651.367183
            ],
            [
              593987.150568,
              6643651.836687
            ],
            [
              593986.849269,
              6643652.060178
            ],
            [
              593986.43306,
              6643652.333434
            ],
            [
              593985.525533,
              6643652.933432
            ],
            [
              593984.209944,
              6643653.275463
            ],
            [
              593983.168509,
              6643653.251044
            ],
            [
              593982.27908,
              6643653.099951
            ],
            [
              593981.337171,
              6643652.863805
            ],
            [
              593980.675752,
              6643652.522699
            ],
            [
              593980.133769,
              6643652.302836
            ],
            [
              593978.887838,
              6643651.436947
            ],
            [
              593978.273464,
              6643650.688676
            ],
            [
              593978.008352,
              6643650.403664
            ],
            [
              593977.50256,
              6643650.006458
            ],
            [
              593976.810376,
              6643649.562204
            ],
            [
              593976.311824,
              6643649.306148
            ],
            [
              593975.484834,
              6643649.020138
            ],
            [
              593974.946462,
              6643648.870949
            ],
            [
              593974.253377,
              6643648.767808
            ],
            [
              593973.535863,
              6643648.712623
            ],
            [
              593972.648255,
              6643648.762297
            ],
            [
              593972.070074,
              6643648.830263
            ],
            [
              593970.28489,
              6643649.260066
            ],
            [
              593969.692242,
              6643649.487179
            ],
            [
              593969.094167,
              6643649.77401
            ],
            [
              593968.305178,
              6643650.284331
            ],
            [
              593967.948687,
              6643650.563016
            ],
            [
              593967.603052,
              6643650.832652
            ],
            [
              593966.845735,
              6643651.546554
            ],
            [
              593966.385202,
              6643652.086631
            ],
            [
              593966.071238,
              6643652.559849
            ],
            [
              593965.966274,
              6643652.831392
            ]
          ]
        ]
      }
    },
    {
      "type": "Feature",
      "id": null,
      "properties": {},
      "geometry": {
        "type": "Polygon",
        "coordinates": [
          [
            [
              598480.553117,
              6644431.466604
            ],
            [
              598480.441821,
              6644431.476558
            ],
            [
              598480.592054,
              6644436.0062
            ],
            [
              598543.706692,
              6644437.648891
            ],
            [
              598535.504669,
              6644675.588463
            ],
            [
              598322.644937,
              6644669.033824
            ],
            [
              598319.433848,
              6644715.176247
            ],
            [
              598315.30508,
              6644719.085985
            ],
            [
              598154.434478,
              6644568.190078
            ],
            [
              598167.609017,
              6644421.604928
            ],
            [
              598226.594698,
              6644423.956234
            ],
            [
              598229.322984,
              6644318.871602
            ],
            [
              598454.892815,
              6644319.736795
            ],
            [
              598475.54217,
              6644310.283651
            ],
            [
              598475.070871,
              6644328.385135
            ],
            [
              598483.234364,
              6644328.555185
            ],
            [
              598480.553117,
              6644431.466604
            ]
          ]
        ]
      }
    }
  ]
}
