{
  "type": "FeatureCollection",
  "features": [
    {
      "type": "Feature",
      "id": "feature-1:polygon-0",
      "properties": {},
      "geometry": {
        "type": "Polygon",
        "coordinates": [
          [
            [
              10.680696773243135,
              59.91962556681351
            ],
            [
              10.680694201878243,
              59.9196288095247
            ],
            [
              10.680692983908386,
              59.91963128644638
            ],
            [
              10.680689539383497,
              59.91963710910892
            ],
            [
              10.68068572197483,
              59.91964579610588
            ],
            [
              10.68068345601536,
              59.91965219606977
            ],
            [
              10.680682900040829,
              59.91965784285295
            ],
            [
              10.680683774290001,
              59.919664885383405
            ],
            [
              10.680688581408038,
              59.9196802397776
            ],
            [
              10.680698098868781,
              59.91969655802967
            ],
            [
              10.68072965981892,
              59.919732032512705
            ],
            [
              10.680618770849492,
              59.91976661030249
            ],
            [
              10.680522963688528,
              59.9197995256945
            ],
            [
              10.68022843689896,
              59.9196653198571
            ],
            [
              10.680093014877913,
              59.91960494381279
            ],
            [
              10.679996616843463,
              59.91963001630714
            ],
            [
              10.679315803793124,
              59.9193277465363
            ],
            [
              10.679169040954523,
              59.9192664585969
            ],
            [
              10.679070547988088,
              59.91930899536192
            ],
            [
              10.678937164588755,
              59.91920273526018
            ],
            [
              10.678832255467738,
              59.919139134981414
            ],
            [
              10.678665332707201,
              59.919059380228056
            ],
            [
              10.678331511587107,
              59.91893682846606
            ],
            [
              10.67813917442465,
              59.918866579527815
            ],
            [
              10.67797120991199,
              59.91879209497721
            ],
            [
              10.677527992855513,
              59.91856208995899
            ],
            [
              10.677322630563385,
              59.91846812241158
            ],
            [
              10.677109258031575,
              59.91838890829684
            ],
            [
              10.677001015790342,
              59.91836880788228
            ],
            [
              10.677371157577673,
              59.91822072315388
            ],
            [
              10.677748835163833,
              59.9178841420154
            ],
            [
              10.67803722767257,
              59.91769812293066
            ],
            [
              10.67855310892869,
              59.91736598680518
            ],
            [
              10.67929968736891,
              59.91697164309917
            ],
            [
              10.679070638608907,
              59.91691520705381
            ],
            [
              10.678768280777179,
              59.91683999821123
            ],
            [
              10.678406555561354,
              59.916711854137
            ],
            [
              10.677967121647518,
              59.91657261484128
            ],
            [
              10.67724368951475,
              59.916317670370915
            ],
            [
              10.676865824392918,
              59.916123798780355
            ],
            [
              10.676451216427512,
              59.9159810532906
            ],
            [
              10.67592769555935,
              59.91581107908751
            ],
            [
              10.675264059236632,
              59.91550566326869
            ],
            [
              10.674668960466825,
              59.91516499890795
            ],
            [
              10.67419322154717,
              59.9149748265424
            ],
            [
              10.673930207179366,
              59.91496618199896
            ],
            [
              10.673031725864428,
              59.914860753698925
            ],
            [
              10.672430341507416,
              59.91478415131491
            ],
            [
              10.67185311661551,
              59.91468846790161
            ],
            [
              10.6715653128762,
              59.914762810345785
            ],
            [
              10.671206825907179,
              59.91495343326805
            ],
            [
              10.671034898168475,
              59.915206124445035
            ],
            [
              10.671012134664444,
              59.91530375004551
            ],
            [
              10.670971713775081,
              59.915476329079574
            ],
            [
              10.670873389991073,
              59.9155917018046
            ],
            [
              10.6704577776887,
              59.915473361473296
            ],
            [
              10.670262256385524,
              59.91538249420429
            ],
            [
              10.669972683394947,
              59.91524797694098
            ],
            [
              10.670176368259758,
              59.91507312571283
            ],
            [
              10.670229727184307,
              59.91504160910529
            ],
            [
              10.670613124132398,
              59.91481520996926
            ],
            [
              10.670790268482792,
              59.91467491403876
            ],
            [
              10.670985219896707,
              59.91452027659625
            ],
            [
              10.670633540142937,
              59.914445943714355
            ],
            [
              10.670026245409156,
              59.91422669871939
            ],
            [
              10.669502520917275,
              59.91403951674218
            ],
            [
              10.668833261925597,
              59.91380258161006
            ],
            [
              10.668467750540424,
              59.9136765320472
            ],
            [
              10.667868471643063,
              59.913489373503076
            ],
            [
              10.667116231628379,
              59.913380713039324
            ],
            [
              10.66663525756175,
              59.91323799897435
            ],
            [
              10.666521353008944,
              59.91317777764991
            ],
            [
              10.666347027046212,
              59.9130331082901
            ],
            [
              10.666232760854696,
              59.91280013470431
            ],
            [
              10.666220378884141,
              59.912681030000975
            ],
            [
              10.666305170515534,
              59.91256512505841
            ],
            [
              10.666403500600943,
              59.91244975576929
            ],
            [
              10.666558382817234,
              59.91232914465898
            ],
            [
              10.666405203693348,
              59.91233111487934
            ],
            [
              10.666110139763267,
              59.91230889883276
            ],
            [
              10.66590958296472,
              59.9122938426624
            ],
            [
              10.665482231184681,
              59.91226582998283
            ],
            [
              10.66528345904306,
              59.91232348861235
            ],
            [
              10.665070539194824,
              59.9123852660934
            ],
            [
              10.66492873127337,
              59.91235226978445
            ],
            [
              10.664820617116765,
              59.91222308751922
            ],
            [
              10.664842416826572,
              59.91205619089859
            ],
            [
              10.66451875108551,
              59.911766321130855
            ],
            [
              10.664280573561054,
              59.91167466748287
            ],
            [
              10.663822870003209,
              59.91166660203959
            ],
            [
              10.663496096498383,
              59.911698008753085
            ],
            [
              10.663360738886515,
              59.9117979473584
            ],
            [
              10.663171124828235,
              59.91197325208165
            ],
            [
              10.663085601247895,
              59.91209605599937
            ],
            [
              10.662899669982474,
              59.912329481543225
            ],
            [
              10.662795176593685,
              59.91257961762195
            ],
            [
              10.662768420989101,
              59.91268295658167
            ],
            [
              10.662708903716247,
              59.91279582578557
            ],
            [
              10.662623241748637,
              59.912974465692336
            ],
            [
              10.662572713896179,
              59.91314733943962
            ],
            [
              10.662492574496657,
              59.91330152261123
            ],
            [
              10.661499447223573,
              59.91339602879596
            ],
            [
              10.660192254369534,
              59.91348206036201
            ],
            [
              10.659081297254025,
              59.91367229627324
            ],
            [
              10.65852580640147,
              59.91381880241185
            ],
            [
              10.658087453488058,
              59.913818639653904
            ],
            [
              10.657532585110406,
              59.91367156452387
            ],
            [
              10.657299181757056,
              59.9134367191956
            ],
            [
              10.657065955602555,
              59.91314306990676
            ],
            [
              10.656832824592191,
              59.912878827914525
            ],
            [
              10.656687645914387,
              59.91240913659048
            ],
            [
              10.65689296075004,
              59.91196908713073
            ],
            [
              10.657273596214662,
              59.91158769713245
            ],
            [
              10.657215845927647,
              59.9112941728409
            ],
            [
              10.656866278329524,
              59.91069238677265
            ],
            [
              10.656663038318376,
              59.91004659997576
            ],
            [
              10.656079463390155,
              59.90965011366249
            ],
            [
              10.655788046122124,
              59.90923907980811
            ],
            [
              10.656401999056715,
              59.90903390929787
            ],
            [
              10.656111061740358,
              59.90844682354615
            ],
            [
              10.655907848299295,
              59.90780103573361
            ],
            [
              10.656113556732171,
              59.90721415716151
            ],
            [
              10.657078266396862,
              59.90687713566601
            ],
            [
              10.657985388656636,
              59.90614389641466
            ],
            [
              10.658920755879711,
              59.905982952457244
            ],
            [
              10.66000107452193,
              59.90632090518972
            ],
            [
              10.660584226970887,
              59.9069081756838
            ],
            [
              10.662473279606283,
              59.907343631297856
            ],
            [
              10.662492831701456,
              59.907281688988625
            ],
            [
              10.662502724564487,
              59.90722104870582
            ],
            [
              10.66252228430551,
              59.90716863840136
            ],
            [
              10.662542072730474,
              59.90713503116795
            ],
            [
              10.662551391338813,
              59.90708974684998
            ],
            [
              10.66250819093245,
              59.90692160806706
            ],
            [
              10.662551991569877,
              59.9068741340772
            ],
            [
              10.662552066170496,
              59.906829714968104
            ],
            [
              10.662583984522085,
              59.90680603839384
            ],
            [
              10.662628888847406,
              59.906706266030746
            ],
            [
              10.662663234862482,
              59.90669004308495
            ],
            [
              10.662644181114816,
              59.90662485093697
            ],
            [
              10.66266039440512,
              59.90659804896841
            ],
            [
              10.66265795315699,
              59.90657836546251
            ],
            [
              10.662608568511365,
              59.90647674335545
            ],
            [
              10.662735234914727,
              59.906349991517715
            ],
            [
              10.662750996895078,
              59.906271829090066
            ],
            [
              10.662793722265016,
              59.906239427429774
            ],
            [
              10.662778591078439,
              59.90619765442973
            ],
            [
              10.662805174695265,
              59.90618054615672
            ],
            [
              10.662802659393275,
              59.90617102142987
            ],
            [
              10.662840769407113,
              59.906084872207735
            ],
            [
              10.662813831171556,
              59.906016993223055
            ],
            [
              10.662851943798108,
              59.90599522928151
            ],
            [
              10.662972659360518,
              59.905676926712104
            ],
            [
              10.662974025651122,
              59.90559109604757
            ],
            [
              10.662988027432776,
              59.905512695757594
            ],
            [
              10.663021770221462,
              59.905390074912056
            ],
            [
              10.66298629350309,
              59.905353296485664
            ],
            [
              10.662912836818267,
              59.90523586499162
            ],
            [
              10.662890337099226,
              59.905113458687964
            ],
            [
              10.662914584914356,
              59.90499636896774
            ],
            [
              10.66293821465024,
              59.904959381350594
            ],
            [
              10.662934910119187,
              59.9049188973683
            ],
            [
              10.662960207050094,
              59.9047978856402
            ],
            [
              10.662921483978316,
              59.904696886560004
            ],
            [
              10.662928838384861,
              59.904673479413304
            ],
            [
              10.662905734476897,
              59.904511847116
            ],
            [
              10.662949601863689,
              59.90442409011643
            ],
            [
              10.663019815568358,
              59.90409216345665
            ],
            [
              10.66312337164282,
              59.903994234164294
            ],
            [
              10.66316300585918,
              59.9037634512408
            ],
            [
              10.663107540221963,
              59.90372484503658
            ],
            [
              10.66298292746158,
              59.9035824367228
            ],
            [
              10.662932155640608,
              59.90346953044174
            ],
            [
              10.662881425991994,
              59.90338234147971
            ],
            [
              10.662827896897404,
              59.90329739908796
            ],
            [
              10.6627091258014,
              59.90298559148662
            ],
            [
              10.66268146984058,
              59.90283963444441
            ],
            [
              10.662693537339575,
              59.90281440528025
            ],
            [
              10.662695200848944,
              59.9027742639808
            ],
            [
              10.662702879988014,
              59.90267848015836
            ],
            [
              10.662695265048445,
              59.90264495882731
            ],
            [
              10.6627537733709,
              59.90248484752603
            ],
            [
              10.662748881311048,
              59.90245788945452
            ],
            [
              10.662791260826074,
              59.902347243260984
            ],
            [
              10.662811554770444,
              59.90214118098938
            ],
            [
              10.663371633588131,
              59.90191127572473
            ],
            [
              10.663381957131088,
              59.90191035704952
            ],
            [
              10.663364232001712,
              59.901787029085106
            ],
            [
              10.663782019994034,
              59.901525365159394
            ],
            [
              10.663840296527134,
              59.90151226951951
            ],
            [
              10.66395253567356,
              59.90145194362635
            ],
            [
              10.664255806240517,
              59.901333797961584
            ],
            [
              10.664787092779004,
              59.90130229574851
            ],
            [
              10.665065256614904,
              59.90135174520886
            ],
            [
              10.665252268260966,
              59.901342529457814
            ],
            [
              10.665301454218248,
              59.90130170568022
            ],
            [
              10.665449811146281,
              59.901236184837124
            ],
            [
              10.665688517096871,
              59.90110520840075
            ],
            [
              10.665801654532343,
              59.90106676168495
            ],
            [
              10.665885750789117,
              59.90103823796498
            ],
            [
              10.666047336355373,
              59.90100849158982
            ],
            [
              10.665845970473168,
              59.900873988888534
            ],
            [
              10.66562829585461,
              59.90068068091758
            ],
            [
              10.665526529127485,
              59.90056483607431
            ],
            [
              10.665487709138262,
              59.90048100880428
            ],
            [
              10.665338952034263,
              59.89985852256746
            ],
            [
              10.665893463265682,
              59.899858715614435
            ],
            [
              10.665983540278187,
              59.89983371600947
            ],
            [
              10.666066435319621,
              59.899626479376934
            ],
            [
              10.666520459818301,
              59.8994570932541
            ],
            [
              10.666669624867021,
              59.89940724250812
            ],
            [
              10.6669488915946,
              59.899375435106144
            ],
            [
              10.66699574820798,
              59.89937437133194
            ],
            [
              10.66704306623428,
              59.8992970670897
            ],
            [
              10.667156458337699,
              59.89918938872291
            ],
            [
              10.667311021654381,
              59.899105006082124
            ],
            [
              10.66755997082645,
              59.89900646616967
            ],
            [
              10.667602517187357,
              59.899001392715306
            ],
            [
              10.66762544114173,
              59.89899855064823
            ],
            [
              10.667806633214536,
              59.898943279764055
            ],
            [
              10.668008756541678,
              59.89889220383617
            ],
            [
              10.667819354189941,
              59.89876619178338
            ],
            [
              10.667691705980815,
              59.898627826185944
            ],
            [
              10.667686038482469,
              59.89854778888317
            ],
            [
              10.667665347172667,
              59.89841690059303
            ],
            [
              10.6677019221384,
              59.898254536848434
            ],
            [
              10.667855551467666,
              59.89810043342834
            ],
            [
              10.668178588153525,
              59.89793194474526
            ],
            [
              10.668573751958588,
              59.897896576264195
            ],
            [
              10.66865542636444,
              59.897889283651715
            ],
            [
              10.669066061948898,
              59.89785055640494
            ],
            [
              10.669329921025154,
              59.89793540529026
            ],
            [
              10.669487342077444,
              59.897973138349506
            ],
            [
              10.669807577417213,
              59.898151382172614
            ],
            [
              10.669766247525683,
              59.89819929913662
            ],
            [
              10.669986190381072,
              59.89824898058775
            ],
            [
              10.670128949605477,
              59.89824405698496
            ],
            [
              10.670205275511186,
              59.898240723799034
            ],
            [
              10.6707604825294,
              59.8982037803047
            ],
            [
              10.671196681779204,
              59.89818315336987
            ],
            [
              10.671414825921563,
              59.89820957250919
            ],
            [
              10.671473196462749,
              59.89821490981549
            ],
            [
              10.671519155902923,
              59.89822208775095
            ],
            [
              10.671567522589626,
              59.8982272757592
            ],
            [
              10.671600971452198,
              59.898234310970444
            ],
            [
              10.67165715988373,
              59.89824128491865
            ],
            [
              10.67172262768818,
              59.89824847418874
            ],
            [
              10.671804918651155,
              59.898255677297286
            ],
            [
              10.671863208730414,
              59.89826712646459
            ],
            [
              10.671958463523403,
              59.898290222452886
            ],
            [
              10.672136717582068,
              59.898353544924014
            ],
            [
              10.672313238859992,
              59.898427421798
            ],
            [
              10.672411340881894,
              59.898468506404136
            ],
            [
              10.672505449083058,
              59.89850864937865
            ],
            [
              10.672574767987463,
              59.89854123285668
            ],
            [
              10.672635142726506,
              59.898569655498434
            ],
            [
              10.672767881591653,
              59.89863202052999
            ],
            [
              10.672825824262794,
              59.89866674753098
            ],
            [
              10.672885765751449,
              59.89870261929103
            ],
            [
              10.673012267563024,
              59.898829342672485
            ],
            [
              10.673020569870468,
              59.89888788402666
            ],
            [
              10.673016072792855,
              59.898925144437435
            ],
            [
              10.672902392362081,
              59.899874485382554
            ],
            [
              10.67281949048137,
              59.90045022495693
            ],
            [
              10.67279242493397,
              59.900585116547894
            ],
            [
              10.672715481471661,
              59.90089533361145
            ],
            [
              10.672713859562883,
              59.900962721504875
            ],
            [
              10.672734272107272,
              59.90116733508562
            ],
            [
              10.672716512670942,
              59.90131871770685
            ],
            [
              10.672711650448456,
              59.90133267640508
            ],
            [
              10.672697522385944,
              59.90137240675771
            ],
            [
              10.672591686529698,
              59.901600744145014
            ],
            [
              10.67250838292076,
              59.90179628082627
            ],
            [
              10.672308341769977,
              59.90239577466058
            ],
            [
              10.672124013192548,
              59.90265767874742
            ],
            [
              10.671806937694683,
              59.90300819536025
            ],
            [
              10.671685474734398,
              59.90325607076843
            ],
            [
              10.671556602212407,
              59.9035374230039
            ],
            [
              10.671489776988233,
              59.904021161701536
            ],
            [
              10.672230971509492,
              59.904068830175994
            ],
            [
              10.672542941905306,
              59.90408853176922
            ],
            [
              10.67489137071654,
              59.90424073459832
            ],
            [
              10.675727298994723,
              59.904295094564745
            ],
            [
              10.675957574581329,
              59.90479363256647
            ],
            [
              10.676152141648675,
              59.90518425998848
            ],
            [
              10.676357047523892,
              59.90557801427233
            ],
            [
              10.676380987312147,
              59.90562376152278
            ],
            [
              10.676404950469319,
              59.90566932970805
            ],
            [
              10.676529552171047,
              59.90590029515109
            ],
            [
              10.676582957400173,
              59.90599610749591
            ],
            [
              10.676603688754845,
              59.90603212770657
            ],
            [
              10.67663930829444,
              59.90608167563099
            ],
            [
              10.676684116672075,
              59.906151398060985
            ],
            [
              10.676707459019253,
              59.90619074119385
            ],
            [
              10.676719050264078,
              59.90621171399416
            ],
            [
              10.676728832176527,
              59.90623145837321
            ],
            [
              10.676732649587029,
              59.906251636243205
            ],
            [
              10.676730870828699,
              59.906272168904074
            ],
            [
              10.676716174862953,
              59.90629290844499
            ],
            [
              10.676716794772684,
              59.90629364728261
            ],
            [
              10.676719681939117,
              59.90629347326737
            ],
            [
              10.676692948741664,
              59.90631453582754
            ],
            [
              10.67667077690521,
              59.90631569487103
            ],
            [
              10.673530252836644,
              59.90648287658601
            ],
            [
              10.67276647493597,
              59.906216593108624
            ],
            [
              10.672358065096105,
              59.906178434350764
            ],
            [
              10.671979718995102,
              59.90620492849839
            ],
            [
              10.67169202284843,
              59.906333945560945
            ],
            [
              10.671601216751684,
              59.90642897256287
            ],
            [
              10.671229562803656,
              59.9069835250936
            ],
            [
              10.670903058795458,
              59.90773954707783
            ],
            [
              10.670842339701593,
              59.907933309211174
            ],
            [
              10.670509048650931,
              59.90811936323304
            ],
            [
              10.670077376782722,
              59.90844605440963
            ],
            [
              10.669842346633011,
              59.908761319353786
            ],
            [
              10.669842001262213,
              59.90895886700371
            ],
            [
              10.669992909954173,
              59.90918692819106
            ],
            [
              10.670204731578213,
              59.909270599731386
            ],
            [
              10.670734255143458,
              59.90929746284382
            ],
            [
              10.671452918047763,
              59.90936228544395
            ],
            [
              10.672821951886828,
              59.909632650350915
            ],
            [
              10.673411766383676,
              59.90986461764844
            ],
            [
              10.674152874532878,
              59.91016126215851
            ],
            [
              10.674606411395182,
              59.91037426597269
            ],
            [
              10.674837391809527,
              59.91069442417771
            ],
            [
              10.675102765995003,
              59.911055727158995
            ],
            [
              10.675368393465016,
              59.91123647556641
            ],
            [
              10.675618271459967,
              59.91136221261848
            ],
            [
              10.676009158942872,
              59.91144879213159
            ],
            [
              10.676978631668595,
              59.91165328915706
            ],
            [
              10.677916580094362,
              59.91193632384777
            ],
            [
              10.679026592034779,
              59.91224298398779
            ],
            [
              10.679182823340895,
              59.91225881376012
            ],
            [
              10.679292455619393,
              59.91221169827918
            ],
            [
              10.679292660873994,
              59.91199967086222
            ],
            [
              10.679028086168751,
              59.91108853560054
            ],
            [
              10.67920052591786,
              59.91076661407545
            ],
            [
              10.67965419078073,
              59.91057037253065
            ],
            [
              10.680029843891955,
              59.91030349853648
            ],
            [
              10.680296201417846,
              59.90999724762836
            ],
            [
              10.680609472910124,
              59.90961250534503
            ],
            [
              10.680578232436819,
              59.90957326353134
            ],
            [
              10.68031237896649,
              59.9095496116666
            ],
            [
              10.68017173946839,
              59.909455343078925
            ],
            [
              10.679797226181847,
              59.908866116088475
            ],
            [
              10.679735028360106,
              59.90855987002995
            ],
            [
              10.679610300090788,
              59.90819069624636
            ],
            [
              10.679470060011836,
              59.9079393484091
            ],
            [
              10.6794075643285,
              59.90777435940488
            ],
            [
              10.679188802466472,
              59.90764074778286
            ],
            [
              10.678735634988612,
              59.907444227279974
            ],
            [
              10.678235385610504,
              59.90730271939454
            ],
            [
              10.677844778012572,
              59.90714556650864
            ],
            [
              10.677641626183844,
              59.907043397704754
            ],
            [
              10.677595093336436,
              59.906799891953185
            ],
            [
              10.677485830799865,
              59.90657203932821
            ],
            [
              10.677454692464703,
              59.90643856242109
            ],
            [
              10.67747051441412,
              59.906312922494564
            ],
            [
              10.677392510661079,
              59.90626575841701
            ],
            [
              10.677381487973841,
              59.90626791503805
            ],
            [
              10.67736106890807,
              59.90623361374411
            ],
            [
              10.677370456964265,
              59.90622888652425
            ],
            [
              10.677401580038188,
              59.9061768552528
            ],
            [
              10.677471946065722,
              59.90606955248209
            ],
            [
              10.677560101969176,
              59.90593423904033
            ],
            [
              10.677638498641393,
              59.90582162485684
            ],
            [
              10.677734690724172,
              59.90569745575633
            ],
            [
              10.677825013289219,
              59.90555510955608
            ],
            [
              10.67802861442117,
              59.905256333948806
            ],
            [
              10.678049984935544,
              59.905239321334626
            ],
            [
              10.678082034754679,
              59.9052255369361
            ],
            [
              10.67814206111144,
              59.90519900241381
            ],
            [
              10.678187260415086,
              59.90518322287457
            ],
            [
              10.67824650418666,
              59.90516682460979
            ],
            [
              10.678309384478103,
              59.90514586984361
            ],
            [
              10.678367235742744,
              59.90513329150877
            ],
            [
              10.678408903200825,
              59.905121262525284
            ],
            [
              10.678420030219375,
              59.905118300856216
            ],
            [
              10.678461891112661,
              59.90510753620582
            ],
            [
              10.678512176959252,
              59.90509668852909
            ],
            [
              10.678617650115767,
              59.90507722227522
            ],
            [
              10.678709632125884,
              59.90506099968464
            ],
            [
              10.678781445745878,
              59.90504843097414
            ],
            [
              10.67883693134005,
              59.90504027082825
            ],
            [
              10.678926737641488,
              59.905028383681376
            ],
            [
              10.679040687559748,
              59.90501531009409
            ],
            [
              10.679127873429511,
              59.905005673827844
            ],
            [
              10.679199595884294,
              59.90499930555878
            ],
            [
              10.679258811691229,
              59.90499549581304
            ],
            [
              10.679372284614,
              59.904995714622174
            ],
            [
              10.679492230842778,
              59.90500396901068
            ],
            [
              10.6795937263332,
              59.90501368570486
            ],
            [
              10.679671652870747,
              59.90502154858914
            ],
            [
              10.679847378067825,
              59.905038647765885
            ],
            [
              10.679983142105494,
              59.90505191794913
            ],
            [
              10.680228226035862,
              59.905076688806616
            ],
            [
              10.680320409333772,
              59.90508780684993
            ],
            [
              10.68035613418523,
              59.90509392611466
            ],
            [
              10.680427546900788,
              59.9051009452653
            ],
            [
              10.680487976982775,
              59.90510706614589
            ],
            [
              10.680540951582044,
              59.90511132280221
            ],
            [
              10.680606126120573,
              59.9051140016185
            ],
            [
              10.680670181101057,
              59.905115653627355
            ],
            [
              10.68076606806805,
              59.905116194102945
            ],
            [
              10.680804379556495,
              59.90511619267509
            ],
            [
              10.68087694919496,
              59.905115696176566
            ],
            [
              10.680917621036535,
              59.90511406459405
            ],
            [
              10.680959730766224,
              59.90511238936974
            ],
            [
              10.681030142388934,
              59.905109215146
            ],
            [
              10.681090796077353,
              59.905105360947154
            ],
            [
              10.681149950229514,
              59.90510064821049
            ],
            [
              10.68120366781447,
              59.90509368884307
            ],
            [
              10.681262659850965,
              59.90508609326247
            ],
            [
              10.681325361555004,
              59.90507475190119
            ],
            [
              10.681377540923245,
              59.90506585453459
            ],
            [
              10.681441773372939,
              59.90505375495802
            ],
            [
              10.681498627098986,
              59.905041952730514
            ],
            [
              10.681555213862907,
              59.905028073533124
            ],
            [
              10.681618350698349,
              59.90501063257639
            ],
            [
              10.681679608215617,
              59.90499249957625
            ],
            [
              10.681751073943941,
              59.90497020727043
            ],
            [
              10.681821021338044,
              59.90494444721326
            ],
            [
              10.681849584803436,
              59.904934053551315
            ],
            [
              10.681877210120323,
              59.90492399058297
            ],
            [
              10.68189136011166,
              59.90491843018895
            ],
            [
              10.68194765004359,
              59.904895818751115
            ],
            [
              10.682010322406091,
              59.904873686481
            ],
            [
              10.682055019862386,
              59.90485761762782
            ],
            [
              10.682129486944508,
              59.90482463219329
            ],
            [
              10.682201884595239,
              59.904791039279644
            ],
            [
              10.682292040075717,
              59.90475029668638
            ],
            [
              10.682405403366904,
              59.90469628689934
            ],
            [
              10.682498185791603,
              59.90465598914444
            ],
            [
              10.682573058673547,
              59.9046240059206
            ],
            [
              10.682668274528412,
              59.904582888678455
            ],
            [
              10.682768028172697,
              59.9045412908057
            ],
            [
              10.682894274947193,
              59.90448869244452
            ],
            [
              10.682973859729008,
              59.90445488532359
            ],
            [
              10.683004174385122,
              59.90444203198961
            ],
            [
              10.683066287134839,
              59.90442006072827
            ],
            [
              10.68310777829792,
              59.90440523608165
            ],
            [
              10.683135824902088,
              59.904397433817046
            ],
            [
              10.683185210392672,
              59.90437972087444
            ],
            [
              10.683264690733203,
              59.90434258219033
            ],
            [
              10.68330974389168,
              59.90432239004438
            ],
            [
              10.683330851475006,
              59.904305996559025
            ],
            [
              10.683350114472645,
              59.90428864425181
            ],
            [
              10.683464065178548,
              59.90424661328924
            ],
            [
              10.683536841553938,
              59.90422661019951
            ],
            [
              10.68361191193167,
              59.90420686215048
            ],
            [
              10.683695127720098,
              59.90418917876155
            ],
            [
              10.683776952012819,
              59.90417118171177
            ],
            [
              10.683850502258629,
              59.9041562394132
            ],
            [
              10.683927598133028,
              59.9041429411154
            ],
            [
              10.684007274455695,
              59.90413044857694
            ],
            [
              10.684083699289364,
              59.904119556952864
            ],
            [
              10.68423572686284,
              59.90410134254704
            ],
            [
              10.684298684025622,
              59.904097653282335
            ],
            [
              10.684377452409402,
              59.904092143683094
            ],
            [
              10.684575461955218,
              59.90408101198851
            ],
            [
              10.684807968239552,
              59.90407029366213
            ],
            [
              10.684959102207275,
              59.90406445910656
            ],
            [
              10.685077920490205,
              59.904060711983014
            ],
            [
              10.685115832092471,
              59.90405826745125
            ],
            [
              10.685162501922797,
              59.90405179569308
            ],
            [
              10.685212899428537,
              59.90404832271291
            ],
            [
              10.685251984798803,
              59.904049243704534
            ],
            [
              10.685321464706194,
              59.90407112461466
            ],
            [
              10.685419980353961,
              59.904103759779545
            ],
            [
              10.685511335206087,
              59.904133641404314
            ],
            [
              10.685559266185152,
              59.9041491497384
            ],
            [
              10.685719128894311,
              59.904201510427335
            ],
            [
              10.685868703937677,
              59.90425038461164
            ],
            [
              10.686058088266662,
              59.90431252493499
            ],
            [
              10.686147638396744,
              59.90434252676904
            ],
            [
              10.686251925931442,
              59.90437759671513
            ],
            [
              10.6862719604589,
              59.9043818511977
            ],
            [
              10.686305892091596,
              59.90438386182207
            ],
            [
              10.686352867413976,
              59.90438881868609
            ],
            [
              10.686392549354943,
              59.90439479625325
            ],
            [
              10.686427243511128,
              59.90440609457743
            ],
            [
              10.686454783631687,
              59.90442147458201
            ],
            [
              10.686474480405888,
              59.9044365965846
            ],
            [
              10.686487573409334,
              59.904452942651375
            ],
            [
              10.686498395337368,
              59.90447299004334
            ],
            [
              10.686519667327824,
              59.90451181374075
            ],
            [
              10.686542306953944,
              59.90455526822043
            ],
            [
              10.686570917353098,
              59.90461339476421
            ],
            [
              10.686602015890404,
              59.904668906137445
            ],
            [
              10.686616259399992,
              59.904692933155616
            ],
            [
              10.686628988097732,
              59.90471484055483
            ],
            [
              10.68677849489169,
              59.904946161556346
            ],
            [
              10.686836594924388,
              59.90503223262447
            ],
            [
              10.686902076647298,
              59.90513589941748
            ],
            [
              10.686956736413297,
              59.90521951792635
            ],
            [
              10.687017251403745,
              59.905310433847454
            ],
            [
              10.687130892834736,
              59.90548437746549
            ],
            [
              10.687251347539744,
              59.90566789780866
            ],
            [
              10.687316084005332,
              59.90576767332218
            ],
            [
              10.687465511258921,
              59.90599278617733
            ],
            [
              10.687523521653175,
              59.906083708743296
            ],
            [
              10.687600582781137,
              59.906200253530265
            ],
            [
              10.687674079324651,
              59.90631254419528
            ],
            [
              10.687749870219431,
              59.906429227983864
            ],
            [
              10.687805820624154,
              59.9065139682793
            ],
            [
              10.687841472736476,
              59.90656890910722
            ],
            [
              10.687869351401558,
              59.90661064572485
            ],
            [
              10.687894528700133,
              59.90665112664507
            ],
            [
              10.687911125965035,
              59.9066873690079
            ],
            [
              10.687922642375794,
              59.906725513069446
            ],
            [
              10.6879310156657,
              59.90676580214523
            ],
            [
              10.68792980481044,
              59.90680820414343
            ],
            [
              10.687922598331395,
              59.90684852315312
            ],
            [
              10.687909408209475,
              59.90688666693419
            ],
            [
              10.687889339056602,
              59.90692539370076
            ],
            [
              10.687863650349414,
              59.906960520246486
            ],
            [
              10.687836558520939,
              59.906995421862604
            ],
            [
              10.687801498807648,
              59.907028262167415
            ],
            [
              10.687767884456727,
              59.9070596229807
            ],
            [
              10.687728941342723,
              59.9070892796224
            ],
            [
              10.687683963962044,
              59.90711990658992
            ],
            [
              10.687599252748754,
              59.90717387067707
            ],
            [
              10.68755254670648,
              59.90719850798966
            ],
            [
              10.687503821517051,
              59.90722352781939
            ],
            [
              10.687353649093184,
              59.907310056014225
            ],
            [
              10.687430610998415,
              59.90736949791755
            ],
            [
              10.687356842793795,
              59.907435689121165
            ],
            [
              10.687422748338234,
              59.90748514808849
            ],
            [
              10.687337470826282,
              59.9075241666395
            ],
            [
              10.688055876015838,
              59.90768321788498
            ],
            [
              10.688782771509628,
              59.90787068835524
            ],
            [
              10.68833651938718,
              59.908381385147365
            ],
            [
              10.688532101288565,
              59.90846908106464
            ],
            [
              10.688723878351421,
              59.90855161645482
            ],
            [
              10.689203953620222,
              59.90869727703654
            ],
            [
              10.68941356987735,
              59.90876654881908
            ],
            [
              10.689652553789625,
              59.9088275193923
            ],
            [
              10.689890189913303,
              59.90889473980623
            ],
            [
              10.68999271269711,
              59.90893388582261
            ],
            [
              10.690199473011635,
              59.90888175901764
            ],
            [
              10.690512433196854,
              59.90896043612806
            ],
            [
              10.690825560984386,
              59.909030936986944
            ],
            [
              10.69130168466693,
              59.90912439709051
            ],
            [
              10.691415716182387,
              59.90921283548003
            ],
            [
              10.691583304587386,
              59.90930248754884
            ],
            [
              10.691592951459114,
              59.909301274711005
            ],
            [
              10.69145628849521,
              59.90934580734712
            ],
            [
              10.691340804135626,
              59.90934580320045
            ],
            [
              10.691175914066488,
              59.909337437366766
            ],
            [
              10.690829659206997,
              59.90925452367334
            ],
            [
              10.690516517050124,
              59.90916343059955
            ],
            [
              10.689724972317828,
              59.90926258911749
            ],
            [
              10.689774378134876,
              59.90933713280671
            ],
            [
              10.689774188844781,
              59.90940339807854
            ],
            [
              10.689707898765805,
              59.909726379840656
            ],
            [
              10.689691415288014,
              59.9098257417527
            ],
            [
              10.69008710166345,
              59.9098672052334
            ],
            [
              10.690334357206957,
              59.90989211734183
            ],
            [
              10.690515724357445,
              59.90996666570574
            ],
            [
              10.690977277643736,
              59.91019866671114
            ],
            [
              10.691372765874998,
              59.91039757046854
            ],
            [
              10.691422187206237,
              59.91044720595457
            ],
            [
              10.691438643983131,
              59.91057147529255
            ],
            [
              10.691471584499155,
              59.91067910944116
            ],
            [
              10.691603351666956,
              59.91078683160182
            ],
            [
              10.69168570888367,
              59.910844828714964
            ],
            [
              10.691850611200408,
              59.91091937559971
            ],
            [
              10.692031983623886,
              59.91094428575874
            ],
            [
              10.692378267847635,
              59.910994016158554
            ],
            [
              10.692691418498704,
              59.911060375567345
            ],
            [
              10.692905737157036,
              59.911184645726806
            ],
            [
              10.693053985997143,
              59.911308911482756
            ],
            [
              10.693949135048374,
              59.91200280303549
            ],
            [
              10.693905931410471,
              59.911971445149554
            ],
            [
              10.693895936838619,
              59.91198775431315
            ],
            [
              10.693788261139495,
              59.912046185554146
            ],
            [
              10.69378833177744,
              59.912053921912914
            ],
            [
              10.693752643951411,
              59.91208332626292
            ],
            [
              10.693740726830722,
              59.912100651556116
            ],
            [
              10.69369139427702,
              59.91215793525707
            ],
            [
              10.69362941720207,
              59.912211926864515
            ],
            [
              10.693555066444265,
              59.912261918564724
            ],
            [
              10.693469861840528,
              59.912307237105786
            ],
            [
              10.693374775768968,
              59.912347288434574
            ],
            [
              10.693270948135277,
              59.91238156761498
            ],
            [
              10.693160065045415,
              59.91240950036682
            ],
            [
              10.693055479463482,
              59.91242891861917
            ],
            [
              10.693202046500534,
              59.91271660335041
            ],
            [
              10.693148261325543,
              59.91283992347391
            ],
            [
              10.693379295374132,
              59.91302867199908
            ],
            [
              10.693498926939096,
              59.913147234857185
            ],
            [
              10.693577524831477,
              59.91320115197643
            ],
            [
              10.693695155365763,
              59.913587701649305
            ],
            [
              10.693544890991484,
              59.91366793971886
            ],
            [
              10.69354463039972,
              59.91395837386789
            ],
            [
              10.693224654461428,
              59.91395266898294
            ],
            [
              10.693239138345216,
              59.914150159310736
            ],
            [
              10.692978350793295,
              59.9141989049741
            ],
            [
              10.6929366311971,
              59.914299599379945
            ],
            [
              10.692817819482489,
              59.9143858115819
            ],
            [
              10.692736035834487,
              59.91444059434594
            ],
            [
              10.692646359125046,
              59.9144913421127
            ],
            [
              10.692520697822829,
              59.914548914177274
            ],
            [
              10.692453954908329,
              59.91456920998197
            ],
            [
              10.692414940287595,
              59.91459248230581
            ],
            [
              10.692312465404965,
              59.91467697986317
            ],
            [
              10.692409563073697,
              59.914727726439246
            ],
            [
              10.692514531474114,
              59.915019986028646
            ],
            [
              10.692435484501571,
              59.91514472545913
            ],
            [
              10.692404750327878,
              59.915275274051425
            ],
            [
              10.692340662329817,
              59.91535788163462
            ],
            [
              10.6921834739032,
              59.915532757809665
            ],
            [
              10.691914527290976,
              59.9156690868438
            ],
            [
              10.691885694755857,
              59.915691162765214
            ],
            [
              10.69184212294212,
              59.91570538276606
            ],
            [
              10.691781236251211,
              59.91574951905038
            ],
            [
              10.69160800591856,
              59.915794114365106
            ],
            [
              10.691584111505374,
              59.91580987758642
            ],
            [
              10.69150924681498,
              59.915883050113656
            ],
            [
              10.691425598866036,
              59.915985249163846
            ],
            [
              10.691116005146643,
              59.91608149043591
            ],
            [
              10.690732068118027,
              59.91606343512159
            ],
            [
              10.689757591037905,
              59.91600895862586
            ],
            [
              10.689569765892456,
              59.915919091790826
            ],
            [
              10.68940784871598,
              59.91586828847026
            ],
            [
              10.689110871896242,
              59.91579705750216
            ],
            [
              10.688969206142241,
              59.91579025951429
            ],
            [
              10.688746456220498,
              59.915841051429226
            ],
            [
              10.688613949003448,
              59.91588230178987
            ],
            [
              10.688547401871778,
              59.91592723948394
            ],
            [
              10.688457702977164,
              59.915982210151796
            ],
            [
              10.688361211217284,
              59.91605224564857
            ],
            [
              10.688188347466287,
              59.916253849135295
            ],
            [
              10.688025514044645,
              59.916383756388484
            ],
            [
              10.687809434813019,
              59.91649204482102
            ],
            [
              10.687745396362512,
              59.916550734086655
            ],
            [
              10.687752819826372,
              59.916620396039605
            ],
            [
              10.687692982951457,
              59.91674873070486
            ],
            [
              10.687766058092862,
              59.91688510655824
            ],
            [
              10.687899903635182,
              59.916983818208855
            ],
            [
              10.687809082624403,
              59.917068064994176
            ],
            [
              10.687847697105292,
              59.91722570293986
            ],
            [
              10.687958262283829,
              59.91729271822521
            ],
            [
              10.687935195847697,
              59.917354458318265
            ],
            [
              10.687557116388218,
              59.91766605612279
            ],
            [
              10.687416099646288,
              59.91758805982592
            ],
            [
              10.6872764068304,
              59.91749023606308
            ],
            [
              10.687221475800262,
              59.91745264782335
            ],
            [
              10.687181578440162,
              59.91742202642617
            ],
            [
              10.687146298610529,
              59.91738894861674
            ],
            [
              10.68692383025057,
              59.91716602922688
            ],
            [
              10.686899747760705,
              59.91699169223706
            ],
            [
              10.686899726826105,
              59.91665152241318
            ],
            [
              10.686811978038964,
              59.916349749668846
            ],
            [
              10.686761198195574,
              59.91591511828069
            ],
            [
              10.68665775886923,
              59.91558252877943
            ],
            [
              10.686586273287256,
              59.91548082281131
            ],
            [
              10.686287796406283,
              59.91531511931445
            ],
            [
              10.685581149362767,
              59.91496662452746
            ],
            [
              10.684945622292865,
              59.914648332719786
            ],
            [
              10.684417406918957,
              59.91440000773269
            ],
            [
              10.683983800282155,
              59.91425594389564
            ],
            [
              10.683510286774109,
              59.91410895120859
            ],
            [
              10.682469265164894,
              59.91387823878807
            ],
            [
              10.682454394865987,
              59.913956905734466
            ],
            [
              10.68256197704654,
              59.914047721090064
            ],
            [
              10.682610973026314,
              59.914119067401934
            ],
            [
              10.682665810514314,
              59.914161906137
            ],
            [
              10.682709265383496,
              59.91418296038846
            ],
            [
              10.68274766388001,
              59.914202757129196
            ],
            [
              10.682778459965622,
              59.914224693682364
            ],
            [
              10.68279645798509,
              59.91424113530977
            ],
            [
              10.682831967133591,
              59.91425954957527
            ],
            [
              10.682871289770848,
              59.91429115803226
            ],
            [
              10.682876345787966,
              59.91433942979134
            ],
            [
              10.682865841432623,
              59.91437248098962
            ],
            [
              10.68280914340239,
              59.91439857678607
            ],
            [
              10.68272724462409,
              59.91440897571293
            ],
            [
              10.68264881301069,
              59.91439272244532
            ],
            [
              10.68259530971992,
              59.91434873782148
            ],
            [
              10.682546959583192,
              59.91430926000521
            ],
            [
              10.68241430696577,
              59.91430068316617
            ],
            [
              10.681746106350401,
              59.914228316173855
            ],
            [
              10.681824366203484,
              59.914394809799965
            ],
            [
              10.681933122202587,
              59.91461319917214
            ],
            [
              10.682022789248705,
              59.9148764621946
            ],
            [
              10.682054997859623,
              59.915167063581556
            ],
            [
              10.68208408032368,
              59.91558354350547
            ],
            [
              10.682161897313144,
              59.915978648214754
            ],
            [
              10.68222418825663,
              59.91619909892217
            ],
            [
              10.682320949787565,
              59.9163949854188
            ],
            [
              10.68244017883262,
              59.916571147283406
            ],
            [
              10.682542235043114,
              59.91667537184812
            ],
            [
              10.682718748161937,
              59.91681915249805
            ],
            [
              10.682923497252679,
              59.91693530997691
            ],
            [
              10.683099861278857,
              59.9170219862664
            ],
            [
              10.68325554749934,
              59.91708453727403
            ],
            [
              10.683535292199904,
              59.917192446336934
            ],
            [
              10.683715704793535,
              59.91726260025472
            ],
            [
              10.683902886229543,
              59.91733535426061
            ],
            [
              10.684116991782405,
              59.91741969768139
            ],
            [
              10.684498013829552,
              59.91756527506244
            ],
            [
              10.684728281035492,
              59.91763468179946
            ],
            [
              10.68489496295319,
              59.917677600925316
            ],
            [
              10.685069743312097,
              59.917713665374976
            ],
            [
              10.685201984908463,
              59.91773524898297
            ],
            [
              10.685336738263908,
              59.917755725136054
            ],
            [
              10.68551511106775,
              59.917782389514294
            ],
            [
              10.685652020381871,
              59.91780237489742
            ],
            [
              10.685533532595292,
              59.91780880779129
            ],
            [
              10.685381344846126,
              59.91781912474708
            ],
            [
              10.685191053234375,
              59.91783488167329
            ],
            [
              10.684959517389835,
              59.917857185805396
            ],
            [
              10.684814621215281,
              59.91787499955453
            ],
            [
              10.68463436435545,
              59.91790072057184
            ],
            [
              10.684472088339398,
              59.91792853345298
            ],
            [
              10.684232417091874,
              59.91797625459547
            ],
            [
              10.684037242566012,
              59.9180255611241
            ],
            [
              10.683871142474418,
              59.91806657237356
            ],
            [
              10.683741121127069,
              59.91810989230468
            ],
            [
              10.683617382254956,
              59.91815044354807
            ],
            [
              10.6834936429639,
              59.918190995567
            ],
            [
              10.683199568463793,
              59.918320651707155
            ],
            [
              10.68306965391202,
              59.918386813534816
            ],
            [
              10.682252299977922,
              59.918428874440416
            ],
            [
              10.68221293024869,
              59.918432816411475
            ],
            [
              10.682161822341426,
              59.91842579052991
            ],
            [
              10.682014434389885,
              59.91839965877743
            ],
            [
              10.682012415945906,
              59.91837217475641
            ],
            [
              10.6820091069092,
              59.91829230448302
            ],
            [
              10.681996946603984,
              59.91809443548707
            ],
            [
              10.681986876847626,
              59.917734851007616
            ],
            [
              10.681961699679812,
              59.91732385763887
            ],
            [
              10.681946931996013,
              59.916971256042316
            ],
            [
              10.681942554940505,
              59.91674271310384
            ],
            [
              10.68184854753914,
              59.916703840509726
            ],
            [
              10.681759421998613,
              59.91666437806759
            ],
            [
              10.681462883916149,
              59.91661277648452
            ],
            [
              10.681122037214427,
              59.91655210583285
            ],
            [
              10.680826811571375,
              59.91649236121246
            ],
            [
              10.680487714212896,
              59.9164255605937
            ],
            [
              10.680462335129038,
              59.91643852701281
            ],
            [
              10.680404667421236,
              59.91651752661323
            ],
            [
              10.680400491773511,
              59.916556882919295
            ],
            [
              10.680401362809238,
              59.91660116437829
            ],
            [
              10.680426562811952,
              59.916640534257056
            ],
            [
              10.68055527977127,
              59.916809555839606
            ],
            [
              10.680597650972643,
              59.916866262148154
            ],
            [
              10.680533923903873,
              59.91688260918576
            ],
            [
              10.680594008355879,
              59.91695650340537
            ],
            [
              10.68064986811436,
              59.91702971135135
            ],
            [
              10.680686227549383,
              59.917078012351254
            ],
            [
              10.680728062260249,
              59.91712792006129
            ],
            [
              10.680766696984215,
              59.917180577736055
            ],
            [
              10.680822929297534,
              59.91725094281807
            ],
            [
              10.680881991938195,
              59.9173214007365
            ],
            [
              10.680960359115558,
              59.91742049168717
            ],
            [
              10.681010900061882,
              59.91747996391204
            ],
            [
              10.681037573241538,
              59.917504393045874
            ],
            [
              10.681090272200057,
              59.917558226058155
            ],
            [
              10.68115891137677,
              59.91760972707664
            ],
            [
              10.681223302930814,
              59.91766108868896
            ],
            [
              10.68126736091994,
              59.91769393917381
            ],
            [
              10.6813000085201,
              59.91772196328185
            ],
            [
              10.681368271723885,
              59.91779510033003
            ],
            [
              10.681436186681907,
              59.91786402119569
            ],
            [
              10.681486716186082,
              59.917941812439366
            ],
            [
              10.681518295679087,
              59.91799043202078
            ],
            [
              10.681565865742963,
              59.91809096607132
            ],
            [
              10.681633940224144,
              59.91823785266804
            ],
            [
              10.681670007100232,
              59.91831335832498
            ],
            [
              10.681694151755822,
              59.9183599498987
            ],
            [
              10.681721130671056,
              59.9184075255729
            ],
            [
              10.681754015681012,
              59.91847343655068
            ],
            [
              10.681827552300911,
              59.91846365569728
            ],
            [
              10.681855770007392,
              59.91847439627049
            ],
            [
              10.681886144159972,
              59.91848223209745
            ],
            [
              10.681916069851955,
              59.91848440346648
            ],
            [
              10.681946177706322,
              59.91848063343253
            ],
            [
              10.68197140050991,
              59.91847343091018
            ],
            [
              10.681985019032549,
              59.91846436131984
            ],
            [
              10.681999883019117,
              59.918450276326936
            ],
            [
              10.682014086801184,
              59.9184094037987
            ],
            [
              10.68214655239668,
              59.918504338255886
            ],
            [
              10.682110020872628,
              59.91858550751906
            ],
            [
              10.682077136430822,
              59.91896758209759
            ],
            [
              10.682077136400675,
              59.91906667501486
            ],
            [
              10.682009128411451,
              59.919108954990804
            ],
            [
              10.68192933523468,
              59.919163347357404
            ],
            [
              10.681845745504264,
              59.91922076235899
            ],
            [
              10.681784693276203,
              59.919259133161916
            ],
            [
              10.681719200911127,
              59.919299967774265
            ],
            [
              10.681678913262333,
              59.91932328444865
            ],
            [
              10.681570458909455,
              59.91938321066327
            ],
            [
              10.681478666436714,
              59.91943208362043
            ],
            [
              10.681424300148366,
              59.91945898478177
            ],
            [
              10.681418565477205,
              59.919461763128076
            ],
            [
              10.68139769277834,
              59.919472139518206
            ],
            [
              10.681380643408097,
              59.919480662184704
            ],
            [
              10.681353547729618,
              59.91949344031147
            ],
            [
              10.681332981648701,
              59.91950283672051
            ],
            [
              10.681290747876758,
              59.91952321286036
            ],
            [
              10.681254862074526,
              59.91953885071531
            ],
            [
              10.681210973119107,
              59.91955818249324
            ],
            [
              10.681183102027534,
              59.919570036838806
            ],
            [
              10.681157499217369,
              59.919580976466044
            ],
            [
              10.681115848204154,
              59.919596873833115
            ],
            [
              10.681087070060535,
              59.91960744039941
            ],
            [
              10.681075038615141,
              59.91961181056042
            ],
            [
              10.681069753686534,
              59.91961388518421
            ],
            [
              10.681062437076552,
              59.91961643266665
            ],
            [
              10.68104648539373,
              59.9196220248145
            ],
            [
              10.681023121560706,
              59.91962539458826
            ],
            [
              10.681004492477665,
              59.919625412794694
            ],
            [
              10.680988523335612,
              59.91962425938826
            ],
            [
              10.68097157738365,
              59.91962235454784
            ],
            [
              10.68095959817373,
              59.919619443704754
            ],
            [
              10.680949809194766,
              59.91961759385537
            ],
            [
              10.68092714228521,
              59.91961010604104
            ],
            [
              10.680915819277898,
              59.919603529959
            ],
            [
              10.680910950420058,
              59.919601032256445
            ],
            [
              10.680901727936707,
              59.91959758241142
            ],
            [
              10.680889151923244,
              59.91959375276821
            ],
            [
              10.680880122951775,
              59.919591568164364
            ],
            [
              10.680865208820416,
              59.91958918956349
            ],
            [
              10.6808555164929,
              59.919587973219045
            ],
            [
              10.6808430792291,
              59.919587205438944
            ],
            [
              10.680830227012363,
              59.91958687365475
            ],
            [
              10.680814381585552,
              59.919587521797766
            ],
            [
              10.680804076160689,
              59.91958826359863
            ],
            [
              10.68077235710735,
              59.91959252814964
            ],
            [
              10.680761865291212,
              59.91959470166939
            ],
            [
              10.680751303561408,
              59.91959741242449
            ],
            [
              10.680737430261031,
              59.919602172623826
            ],
            [
              10.680731183685438,
              59.91960475520641
            ],
            [
              10.68072512707675,
              59.919607254095325
            ],
            [
              10.680711912385132,
              59.919613834316934
            ],
            [
              10.680703924469574,
              59.91961878673474
            ],
            [
              10.680698526454952,
              59.91962310565668
            ],
            [
              10.680696773243135,
              59.91962556681351
            ]
          ]
        ]
      }
    }
  ]
}
